dbn,district,name,telephone,address,Postcode,Borough,url,Latitude,Longitude,2016_student_count,2016_testers_count,2016_offers_count,2017_student_count,2017_testers_count,2017_offers_count,2018_student_count,2018_testers_count,2018_offers_count,2019_student_count,2019_testers_count,2019_offers_count,2020_student_count,2020_testers_count,2020_offers_count,2021_student_count,2021_testers_count,2021_offers_count
01M034,1.0,P.S. 034 Franklin D. Roosevelt,212-228-4433,"730 East  12 Street, New York, NY 10009",10009.0,Manhattan,https://www.myschools.nyc/en/schools/middle-school/8843,40.726473,-73.975181,8.0,8.0,0.0,61.0,10.0,0.0,58.0,6.0,0.0,40.0,6.0,0.0,47.0,0.0,0.0,44.0,0.0,0.0
01M140,1.0,P.S. 140 Nathan Straus,212-677-4680,"123 Ridge Street, New York, NY 10002",10002.0,Manhattan,https://www.myschools.nyc/en/schools/middle-school/8855,40.71925,-73.983056,14.0,14.0,0.0,59.0,10.0,0.0,67.0,6.0,0.0,68.0,10.0,0.0,68.0,7.0,0.0,56.0,9.0,0.0
01M184,1.0,P.S. 184m Shuang Wen,212-602-9700,"327 Cherry Street, New York, NY 10002",10002.0,Manhattan,https://www.myschools.nyc/en/schools/middle-school/8860,40.711549,-73.986542,39.0,39.0,19.0,80.0,64.0,28.0,88.0,67.0,23.0,88.0,67.0,27.0,94.0,74.0,24.0,112.0,79.0,29.0
01M188,1.0,P.S. 188 The Island School,212-677-5710,"442 East Houston Street, New York, NY 10002",10002.0,Manhattan,https://www.myschools.nyc/en/schools/middle-school/8863,40.719598,-73.977904,0.0,0.0,0.0,60.0,11.0,0.0,59.0,0.0,0.0,56.0,9.0,0.0,60.0,9.0,0.0,49.0,0.0,0.0
01M332,1.0,University Neighborhood Middle School,212-267-5701,"220 Henry Street, New York, NY 10002",10002.0,Manhattan,https://www.myschools.nyc/en/schools/middle-school/8869,40.713684,-73.986336,0.0,0.0,0.0,88.0,13.0,0.0,68.0,13.0,0.0,65.0,11.0,0.0,78.0,12.0,0.0,70.0,10.0,0.0
01M378,1.0,School for Global Leaders,212-260-5375,"145 Stanton Street, New York, NY 10002",10002.0,Manhattan,https://www.myschools.nyc/en/schools/middle-school/8876,40.720581,-73.985645,14.0,14.0,0.0,88.0,10.0,0.0,96.0,19.0,0.0,102.0,21.0,0.0,92.0,18.0,0.0,61.0,12.0,0.0
01M450,1.0,East Side Community School,212-460-8467,"420 East 12 Street, New York, NY 10009",10009.0,Manhattan,https://www.myschools.nyc/en/schools/middle-school/8879,40.729589,-73.982555,16.0,16.0,0.0,106.0,11.0,0.0,94.0,16.0,0.0,108.0,18.0,0.0,106.0,25.0,0.0,104.0,16.0,0.0
01M539,1.0,"New Explorations into Science, Technology & Math",212-677-5190,"111 Columbia Street, New York, NY 10002",10002.0,Manhattan,https://www.myschools.nyc/en/schools/middle-school/8881,40.718895,-73.979308,114.0,114.0,81.0,121.0,109.0,77.0,136.0,126.0,91.0,145.0,128.0,78.0,140.0,121.0,82.0,135.0,116.0,76.0
01M839,1.0,Tompkins Square Middle School,212-995-1430,"600 East  6 Street, New York, NY 10009",10009.0,Manhattan,https://www.myschools.nyc/en/schools/middle-school/8885,40.724435,-73.981521,39.0,39.0,6.0,122.0,63.0,8.0,126.0,66.0,14.0,120.0,70.0,7.0,123.0,58.0,7.0,113.0,33.0,8.0
02M104,2.0,J.H.S. 104 Simon Baruch,212-674-4545,"330 East  21 Street, New York, NY 10010",10010.0,Manhattan,https://www.myschools.nyc/en/schools/middle-school/8939,40.736094,-73.980663,195.0,195.0,50.0,408.0,251.0,83.0,386.0,260.0,53.0,388.0,217.0,60.0,384.0,226.0,48.0,344.0,196.0,45.0
02M114,2.0,East Side Middle School,212-360-0114,"331 East 91St Street, New York, NY 10128",10128.0,Manhattan,https://www.myschools.nyc/en/schools/middle-school/8943,40.780706,-73.948553,97.0,97.0,63.0,146.0,102.0,59.0,152.0,124.0,75.0,154.0,115.0,67.0,154.0,114.0,63.0,137.0,115.0,73.0
02M126,2.0,Manhattan Academy of Technology/Jacob Riis,212-962-2188,"80 Catherine Street, New York, NY 10038",10038.0,Manhattan,https://www.myschools.nyc/en/schools/middle-school/8949,40.710729,-73.996631,76.0,76.0,29.0,110.0,66.0,16.0,112.0,66.0,18.0,109.0,66.0,20.0,113.0,70.0,25.0,110.0,65.0,15.0
02M131,2.0,Sun Yat Sen Middle School,212-219-1204,"100 Hester Street, New York, NY 10002",10002.0,Manhattan,https://www.myschools.nyc/en/schools/middle-school/8955,40.716553,-73.993092,57.0,57.0,12.0,169.0,61.0,17.0,138.0,54.0,7.0,170.0,75.0,7.0,144.0,74.0,6.0,110.0,40.0,0.0
02M167,2.0,J.H.S. 167 Robert F. Wagner,212-535-8610,"220 East  76 Street, New York, NY 10021",10021.0,Manhattan,https://www.myschools.nyc/en/schools/middle-school/8964,40.77205,-73.958066,283.0,283.0,78.0,437.0,228.0,68.0,430.0,258.0,77.0,471.0,269.0,75.0,454.0,266.0,73.0,420.0,227.0,73.0
02M177,2.0,Yorkville East Middle School,917-432-5413,"1458 York Avenue, New York, NY 10075",10075.0,Manhattan,https://www.myschools.nyc/en/schools/middle-school/8965,40.770419,-73.951135,0.0,0.0,0.0,49.0,29.0,7.0,82.0,42.0,0.0,76.0,28.0,7.0,76.0,29.0,0.0,73.0,37.0,0.0
02M217,2.0,P.S./I.S. 217 Roosevelt Island,212-980-0294,"645 Main Street, New York, NY 10044",10044.0,Manhattan,https://www.myschools.nyc/en/schools/middle-school/8973,40.763894,-73.947916,0.0,0.0,0.0,18.0,0.0,0.0,21.0,6.0,0.0,29.0,11.0,0.0,31.0,9.0,0.0,26.0,9.0,0.0
02M225,2.0,Ella Baker School,212-717-8809,"317 East  67 Street, New York, NY 10065",10065.0,Manhattan,https://www.myschools.nyc/en/schools/middle-school/8977,40.765359,-73.960059,9.0,9.0,0.0,22.0,0.0,0.0,21.0,0.0,0.0,25.0,0.0,0.0,11.0,0.0,0.0,28.0,0.0,0.0
02M255,2.0,M.S. 255 Salk School of Science,212-614-8785,"320 East 20Th Street, New York, NY 10003",10003.0,Manhattan,https://www.myschools.nyc/en/schools/middle-school/8981,40.735751,-73.981655,105.0,105.0,62.0,126.0,110.0,65.0,131.0,108.0,70.0,132.0,105.0,64.0,132.0,101.0,61.0,125.0,104.0,72.0
02M260,2.0,The Clinton School,212-524-4360,"10 East 15Th Street, New York, NY 10003",10003.0,Manhattan,https://www.myschools.nyc/en/schools/middle-school/8983,40.736518,-73.992725,21.0,21.0,0.0,93.0,21.0,11.0,96.0,36.0,17.0,98.0,25.0,0.0,97.0,37.0,11.0,94.0,46.0,22.0
02M276,2.0,Battery Park City School,212-266-5800,"55 Battery Place, New York, NY 10280",10280.0,Manhattan,https://www.myschools.nyc/en/schools/middle-school/8985,40.70644,-74.017818,40.0,40.0,13.0,94.0,54.0,20.0,84.0,56.0,22.0,94.0,56.0,20.0,98.0,52.0,16.0,85.0,52.0,18.0
02M289,2.0,Hudson River Middle School,212-571-9268,"201 Warren Street, New York, NY 10282",10282.0,Manhattan,https://www.myschools.nyc/en/schools/middle-school/8993,40.716668,-74.013542,53.0,53.0,11.0,94.0,50.0,0.0,91.0,47.0,0.0,93.0,45.0,8.0,98.0,53.0,6.0,89.0,45.0,6.0
02M297,2.0,M.S. 297 (75 Morton),212-295-7555,"75 Morton Street, New York, NY 10014",10014.0,Manhattan,https://www.myschools.nyc/en/schools/middle-school/8998,40.730999,-74.007191,,,,,,,,,,,,,236.0,75.0,6.0,297.0,99.0,28.0
02M312,2.0,New York City Lab Middle School for Collaborative Studies,212-691-6119,"333 West  17 Street, New York, NY 10011",10011.0,Manhattan,https://www.myschools.nyc/en/schools/middle-school/9004,40.742129,-74.002198,162.0,162.0,108.0,174.0,150.0,112.0,181.0,163.0,113.0,186.0,168.0,124.0,186.0,163.0,113.0,179.0,169.0,117.0
02M347,2.0,The 47 American Sign Language & English Lower School,917-326-6609,"223 East 23 Street, New York, NY 10010",10010.0,Manhattan,https://www.myschools.nyc/en/schools/middle-school/9010,40.738548,-73.982455,0.0,0.0,0.0,7.0,0.0,0.0,9.0,0.0,0.0,22.0,0.0,0.0,12.0,0.0,0.0,15.0,6.0,0.0
02M397,2.0,Spruce Street School,212-266-4800,"12 Spruce Street, New York, NY 10038",10038.0,Manhattan,https://www.myschools.nyc/en/schools/middle-school/9017,40.711132,-74.005277,0.0,0.0,0.0,,0.0,0.0,56.0,36.0,10.0,62.0,29.0,9.0,65.0,27.0,0.0,54.0,30.0,9.0
02M407,2.0,Institute for Collaborative Education,212-475-7972,"345 East  15Th Street, New York, NY 10003",10003.0,Manhattan,https://www.myschools.nyc/en/schools/middle-school/9022,40.732447,-73.983031,22.0,22.0,0.0,70.0,11.0,0.0,75.0,21.0,8.0,72.0,13.0,0.0,75.0,7.0,0.0,71.0,17.0,0.0
02M408,2.0,Professional Performing Arts School,212-247-8652,"328 West  48 Street, New York, NY 10036",10036.0,Manhattan,https://www.myschools.nyc/en/schools/middle-school/9025,40.761448,-73.988019,0.0,0.0,0.0,30.0,10.0,0.0,33.0,9.0,0.0,36.0,8.0,0.0,56.0,14.0,0.0,31.0,0.0,0.0
02M413,2.0,School of the Future Middle and High School,212-475-8086,"127 East  22 Street, New York, NY 10010",10010.0,Manhattan,https://www.myschools.nyc/en/schools/middle-school/9029,40.738952,-73.985479,49.0,49.0,14.0,89.0,30.0,6.0,103.0,46.0,15.0,108.0,46.0,10.0,96.0,23.0,6.0,93.0,32.0,0.0
02M422,2.0,Quest to Learn,212-488-3645,"351 West  18 Street, New York, NY 10011",10011.0,Manhattan,https://www.myschools.nyc/en/schools/middle-school/9036,40.742867,-74.002136,51.0,51.0,17.0,89.0,35.0,7.0,96.0,33.0,0.0,76.0,26.0,0.0,58.0,13.0,0.0,46.0,7.0,0.0
02M442,2.0,"Ballet Tech, NYC Public School for Dance",212-254-1803,"890 Broadway, New York, NY 10003",10003.0,Manhattan,https://www.myschools.nyc/en/schools/middle-school/9043,40.738604,-73.989911,13.0,13.0,0.0,19.0,10.0,0.0,25.0,15.0,0.0,22.0,12.0,0.0,20.0,11.0,0.0,25.0,17.0,0.0
02M896,2.0,Lower Manhattan Community Middle School,646-826-8100,"26 Broadway, New York, NY 10004",10004.0,Manhattan,https://www.myschools.nyc/en/schools/middle-school/9069,40.70568,-74.013302,66.0,66.0,13.0,126.0,73.0,13.0,129.0,70.0,8.0,125.0,63.0,7.0,124.0,49.0,0.0,123.0,59.0,7.0
02M933,2.0,City Knoll Middle School,212-695-9115,"425 West 33Rd Street, New York, NY 10001",10001.0,Manhattan,https://www.myschools.nyc/en/schools/middle-school/9070,40.753091,-73.99764,0.0,0.0,0.0,91.0,23.0,0.0,78.0,17.0,0.0,85.0,24.0,0.0,60.0,10.0,0.0,41.0,0.0,0.0
03M054,3.0,J.H.S. 054 Booker T. Washington,212-678-2861,"103 West 107 Street, New York, NY 10025",10025.0,Manhattan,https://www.myschools.nyc/en/schools/middle-school/9129,40.800119,-73.962837,243.0,243.0,156.0,251.0,228.0,137.0,286.0,257.0,150.0,302.0,256.0,157.0,257.0,206.0,102.0,262.0,219.0,126.0
03M076,3.0,P.S. 076 A. Philip Randolph,212-678-2865,"220 West 121 Street, New York, NY 10027",10027.0,Manhattan,https://www.myschools.nyc/en/schools/middle-school/9131,40.806768,-73.951061,14.0,14.0,0.0,49.0,15.0,0.0,59.0,0.0,0.0,63.0,0.0,0.0,59.0,0.0,0.0,42.0,10.0,0.0
03M149,3.0,P.S. 149 Sojourner Truth,646-672-9020,"41 West 117 Street, New York, NY 10026",10026.0,Manhattan,https://www.myschools.nyc/en/schools/middle-school/9142,40.802136,-73.947828,0.0,0.0,0.0,27.0,0.0,0.0,27.0,0.0,0.0,29.0,0.0,0.0,27.0,0.0,0.0,29.0,0.0,0.0
03M180,3.0,P.S. 180 Hugo Newman,212-678-2849,"370 West 120Th Street, New York, NY 10027",10027.0,Manhattan,https://www.myschools.nyc/en/schools/middle-school/9151,40.807843,-73.955569,25.0,25.0,0.0,63.0,24.0,0.0,60.0,22.0,0.0,60.0,11.0,0.0,51.0,0.0,0.0,49.0,10.0,0.0
03M191,3.0,The Riverside School for Makers and Artists,347-478-5228,"300 West 61St Street, New York, NY 10023",10023.0,Manhattan,https://www.myschools.nyc/en/schools/middle-school/9156,40.772883,-73.989609,0.0,0.0,0.0,49.0,6.0,0.0,35.0,6.0,0.0,60.0,0.0,0.0,56.0,14.0,0.0,68.0,10.0,0.0
03M243,3.0,M.S. 243 Center School,212-799-1477,"100 West  84 Street, New York, NY 10024",10024.0,Manhattan,https://www.myschools.nyc/en/schools/middle-school/9163,40.785287,-73.97343,42.0,42.0,20.0,58.0,48.0,20.0,57.0,38.0,14.0,55.0,40.0,12.0,60.0,41.0,12.0,59.0,32.0,14.0
03M245,3.0,M.S. M245 The Computer School,917-441-0873,"100 West  77 Street, New York, NY 10024",10024.0,Manhattan,https://www.myschools.nyc/en/schools/middle-school/9164,40.780822,-73.976855,69.0,69.0,19.0,130.0,57.0,17.0,133.0,70.0,19.0,134.0,64.0,12.0,139.0,65.0,17.0,123.0,62.0,14.0
03M247,3.0,M.S. M247 Dual Language Middle School,212-496-1050,"100 West  77 Street, New York, NY 10024",10024.0,Manhattan,https://www.myschools.nyc/en/schools/middle-school/9165,40.780822,-73.976855,19.0,19.0,0.0,71.0,8.0,0.0,64.0,12.0,0.0,84.0,20.0,0.0,71.0,13.0,0.0,74.0,20.0,0.0
03M250,3.0,M.S. 250 West Side Collaborative Middle School,212-866-6313,"735 West End Avenue, New York, NY 10025",10025.0,Manhattan,https://www.myschools.nyc/en/schools/middle-school/9166,40.795157,-73.973292,6.0,6.0,0.0,60.0,8.0,0.0,60.0,0.0,0.0,60.0,9.0,0.0,56.0,6.0,0.0,49.0,8.0,0.0
03M256,3.0,Lafayette Academy,212-222-2857,"154 West  93 Street, New York, NY 10025",10025.0,Manhattan,https://www.myschools.nyc/en/schools/middle-school/9167,40.791709,-73.970802,11.0,11.0,0.0,56.0,10.0,0.0,48.0,11.0,0.0,56.0,17.0,0.0,40.0,18.0,0.0,49.0,14.0,0.0
03M258,3.0,Community Action School - MS 258,212-678-5888,"154 West  93 Street, New York, NY 10025",10025.0,Manhattan,https://www.myschools.nyc/en/schools/middle-school/9168,40.791709,-73.970802,19.0,19.0,0.0,84.0,25.0,0.0,59.0,11.0,0.0,83.0,15.0,0.0,74.0,14.0,0.0,83.0,9.0,0.0
03M291,3.0,West End Secondary School,212-245-1506,"227-243 West 61St Street, New York, NY 10023",10023.0,Manhattan,https://www.myschools.nyc/en/schools/middle-school/9170,40.772007,-73.987479,0.0,0.0,0.0,,0.0,0.0,133.0,31.0,6.0,100.0,33.0,6.0,108.0,55.0,19.0,105.0,29.0,12.0
03M333,3.0,P.S. 333 Manhattan School for Children,212-222-1450,"154 West  93 Street, New York, NY 10025",10025.0,Manhattan,https://www.myschools.nyc/en/schools/middle-school/9173,40.791709,-73.970802,30.0,30.0,11.0,51.0,19.0,0.0,50.0,15.0,0.0,64.0,19.0,6.0,63.0,18.0,0.0,58.0,21.0,0.0
03M334,3.0,The Anderson School,212-595-7193,"100 West  77 Street, New York, NY 10024",10024.0,Manhattan,https://www.myschools.nyc/en/schools/middle-school/9175,40.780822,-73.976855,61.0,61.0,54.0,74.0,67.0,51.0,76.0,75.0,58.0,63.0,61.0,43.0,61.0,55.0,33.0,60.0,55.0,45.0
03M415,3.0,Wadleigh Secondary School for the Performing & Visual Arts,212-749-5800,"215 West 114 Street, New York, NY 10026",10026.0,Manhattan,https://www.myschools.nyc/en/schools/middle-school/9180,40.802207,-73.954142,0.0,0.0,0.0,12.0,0.0,0.0,16.0,0.0,0.0,22.0,0.0,0.0,35.0,0.0,0.0,25.0,0.0,0.0
03M421,3.0,West Prep Academy,212-280-8502,"150 West 105 Street, New York, NY 10025",10025.0,Manhattan,https://www.myschools.nyc/en/schools/middle-school/9182,40.799376,-73.965308,0.0,0.0,0.0,69.0,12.0,0.0,74.0,21.0,0.0,74.0,28.0,0.0,71.0,24.0,0.0,64.0,16.0,0.0
03M859,3.0,Special Music School,212-501-3318,"129 West  67 Street, New York, NY 10023",10023.0,Manhattan,https://www.myschools.nyc/en/schools/middle-school/9191,40.774919,-73.982745,12.0,12.0,0.0,14.0,0.0,0.0,16.0,10.0,7.0,14.0,8.0,0.0,18.0,0.0,0.0,12.0,7.0,0.0
03M860,3.0,Frederick Douglass Academy II Secondary School,212-865-9260,"215 West 114 Street, New York, NY 10026",10026.0,Manhattan,https://www.myschools.nyc/en/schools/middle-school/9194,40.802207,-73.954142,0.0,0.0,0.0,31.0,0.0,0.0,9.0,0.0,0.0,24.0,0.0,0.0,21.0,0.0,0.0,23.0,0.0,0.0
03M862,3.0,Mott Hall II,212-678-2960,"234 West 109 Street, New York, NY 10025",10025.0,Manhattan,https://www.myschools.nyc/en/schools/middle-school/9195,40.802917,-73.965613,85.0,85.0,15.0,110.0,57.0,10.0,122.0,64.0,12.0,144.0,60.0,13.0,138.0,49.0,0.0,146.0,89.0,7.0
04M007,4.0,P.S. 007 Samuel Stern,212-860-5827,"160 East 120 Street, New York, NY 10035",10035.0,Manhattan,https://www.myschools.nyc/en/schools/middle-school/9237,40.801007,-73.939349,0.0,0.0,0.0,43.0,0.0,0.0,51.0,0.0,0.0,68.0,0.0,0.0,69.0,6.0,0.0,54.0,9.0,0.0
04M012,4.0,Tag Young Scholars,212-860-6003,"240 East 109 Street, New York, NY 10029",10029.0,Manhattan,https://www.myschools.nyc/en/schools/middle-school/9241,40.79307,-73.942303,47.0,47.0,27.0,59.0,55.0,38.0,56.0,54.0,27.0,85.0,81.0,49.0,77.0,71.0,32.0,57.0,53.0,26.0
04M057,4.0,James Weldon Johnson,212-876-5522,"176 East 115 Street, New York, NY 10029",10029.0,Manhattan,https://www.myschools.nyc/en/schools/middle-school/9249,40.797577,-73.94128,26.0,26.0,0.0,99.0,24.0,0.0,99.0,20.0,0.0,99.0,32.0,0.0,86.0,28.0,0.0,82.0,0.0,0.0
04M072,4.0,The Lexington Academy,212-860-5831,"131 East 104 Street, New York, NY 10029",10029.0,Manhattan,https://www.myschools.nyc/en/schools/middle-school/9253,40.791179,-73.947776,0.0,0.0,0.0,84.0,15.0,0.0,83.0,11.0,0.0,85.0,12.0,0.0,58.0,9.0,0.0,66.0,7.0,0.0
04M096,4.0,P.S. 096 Joseph Lanzetta,212-860-5851,"216 East 120 Street, New York, NY 10035",10035.0,Manhattan,https://www.myschools.nyc/en/schools/middle-school/9260,40.800256,-73.937558,15.0,15.0,0.0,78.0,12.0,0.0,65.0,0.0,0.0,57.0,0.0,0.0,48.0,0.0,0.0,53.0,0.0,0.0
04M108,4.0,P.S. 108 Assemblyman Angelo Del Toro Educational Complex,212-860-5803,"1615 Madison Avenue, New York, NY 10029",10029.0,Manhattan,https://www.myschools.nyc/en/schools/middle-school/9271,40.795146,-73.948368,11.0,11.0,0.0,88.0,6.0,0.0,91.0,9.0,0.0,64.0,7.0,0.0,64.0,0.0,0.0,62.0,10.0,0.0
04M171,4.0,P.S. 171 Patrick Henry,212-860-5801,"19 East 103 Street, New York, NY 10029",10029.0,Manhattan,https://www.myschools.nyc/en/schools/middle-school/9281,40.792122,-73.951961,43.0,43.0,0.0,96.0,41.0,0.0,92.0,43.0,0.0,94.0,37.0,0.0,90.0,38.0,0.0,82.0,29.0,0.0
04M206,4.0,P.S. 206 Jose Celso Barbosa,212-860-5809,"508 East 120 Street, New York, NY 10035",10035.0,Manhattan,https://www.myschools.nyc/en/schools/middle-school/9288,40.797467,-73.930868,19.0,19.0,0.0,67.0,18.0,0.0,47.0,17.0,0.0,75.0,11.0,0.0,78.0,16.0,0.0,71.0,13.0,0.0
04M224,4.0,M.S. 224 Manhattan East School for Arts & Academics,212-860-6047,"410 East 100 Street, New York, NY 10029",10029.0,Manhattan,https://www.myschools.nyc/en/schools/middle-school/9289,40.785671,-73.942548,25.0,25.0,0.0,44.0,20.0,0.0,55.0,14.0,0.0,64.0,24.0,0.0,65.0,14.0,0.0,61.0,20.0,0.0
04M372,4.0,Esperanza Preparatory Academy,212-722-6507,"240 East 109 Street, New York, NY 10029",10029.0,Manhattan,https://www.myschools.nyc/en/schools/middle-school/9291,40.79307,-73.942303,10.0,10.0,0.0,86.0,0.0,0.0,71.0,0.0,0.0,78.0,7.0,0.0,78.0,6.0,0.0,71.0,0.0,0.0
04M377,4.0,Renaissance School of the Arts,212-534-6072,"319 East 117 Street, New York, NY 10035",10035.0,Manhattan,https://www.myschools.nyc/en/schools/middle-school/9295,40.797302,-73.936365,12.0,12.0,0.0,53.0,24.0,0.0,53.0,6.0,0.0,39.0,0.0,0.0,57.0,0.0,0.0,76.0,23.0,0.0
04M610,4.0,Young Women's Leadership School,212-289-7593,"105 East 106Th Street, New York, NY 10029",10029.0,Manhattan,https://www.myschools.nyc/en/schools/middle-school/9301,40.792741,-73.947428,0.0,0.0,0.0,55.0,6.0,0.0,50.0,8.0,0.0,55.0,0.0,0.0,56.0,0.0,0.0,49.0,0.0,0.0
04M825,4.0,Isaac Newton Middle School for Math & Science,212-860-6006,"260 Pleasant Avenue, New York, NY 10029",10029.0,Manhattan,https://www.myschools.nyc/en/schools/middle-school/9304,40.793856,-73.934028,6.0,6.0,0.0,82.0,9.0,0.0,55.0,20.0,0.0,60.0,7.0,0.0,75.0,10.0,0.0,97.0,21.0,0.0
04M964,4.0,Central Park East II,212-860-5992,"433 East 100 Street, New York, NY 10029",10029.0,Manhattan,https://www.myschools.nyc/en/schools/middle-school/9305,40.785258,-73.941526,0.0,0.0,0.0,,0.0,0.0,30.0,6.0,0.0,49.0,0.0,0.0,53.0,8.0,0.0,54.0,0.0,0.0
05M046,5.0,P.S. 046 Arthur Tappan,212-360-1519,"2987 Frederick Douglass Boulevard, New York, NY 10039",,,https://www.myschools.nyc/en/schools/middle-school/9354,,,10.0,10.0,0.0,62.0,7.0,0.0,67.0,8.0,0.0,66.0,0.0,0.0,59.0,0.0,0.0,67.0,0.0,0.0
05M123,5.0,P.S. 123 Mahalia Jackson,212-342-6200,"301 West 140 Street, New York, NY 10030",10030.0,Manhattan,https://www.myschools.nyc/en/schools/middle-school/9357,40.819767,-73.944433,0.0,0.0,0.0,57.0,0.0,0.0,54.0,0.0,0.0,60.0,6.0,0.0,65.0,6.0,0.0,46.0,11.0,0.0
05M148,5.0,Eagle Academy for Young Men of Harlem,212-694-6051,"6 Edgecombe Avenue, New York, NY 10030",10030.0,Manhattan,https://www.myschools.nyc/en/schools/middle-school/9372,40.817372,-73.947712,0.0,0.0,0.0,57.0,6.0,0.0,57.0,10.0,0.0,64.0,14.0,0.0,34.0,0.0,0.0,34.0,6.0,0.0
05M161,5.0,P.S. 161 Pedro Albizu Campos,212-690-5945,"499 West 133 Street, New York, NY 10027",10027.0,Manhattan,https://www.myschools.nyc/en/schools/middle-school/9377,40.81755,-73.953041,22.0,22.0,0.0,116.0,11.0,0.0,122.0,16.0,0.0,131.0,21.0,0.0,122.0,17.0,0.0,110.0,12.0,0.0
05M286,5.0,Urban Assembly Academy for Future Leaders,212-543-4960,"509 West 129 Street, New York, NY 10027",10027.0,Manhattan,https://www.myschools.nyc/en/schools/middle-school/9390,40.815256,-73.955325,6.0,6.0,0.0,93.0,26.0,0.0,82.0,15.0,0.0,58.0,0.0,0.0,44.0,0.0,0.0,29.0,0.0,0.0
05M362,5.0,Columbia Secondary School,212-666-1278,"425 West 123 Street, New York, NY 10027",10027.0,Manhattan,https://www.myschools.nyc/en/schools/middle-school/9394,40.810431,-73.955809,38.0,38.0,19.0,97.0,45.0,20.0,97.0,42.0,23.0,101.0,42.0,15.0,98.0,39.0,18.0,99.0,20.0,15.0
05M499,5.0,Frederick Douglass Academy,212-491-4107,"2581 7Th Avenue, New York, NY 10039",10039.0,Manhattan,https://www.myschools.nyc/en/schools/middle-school/9397,40.824319,-73.93712,11.0,11.0,0.0,84.0,8.0,0.0,87.0,13.0,0.0,98.0,12.0,0.0,81.0,0.0,0.0,88.0,0.0,0.0
05M514,5.0,New Design Middle School,212-281-6339,"625 West 133 Street, New York, NY 10027",10027.0,Manhattan,https://www.myschools.nyc/en/schools/middle-school/9398,40.819481,-73.95761,10.0,10.0,0.0,67.0,6.0,0.0,66.0,11.0,0.0,71.0,14.0,0.0,40.0,8.0,0.0,50.0,10.0,0.0
05M517,5.0,Teachers College Community School,212-316-8080,"168 Morningside Avenue, New York, NY 10027",10027.0,Manhattan,https://www.myschools.nyc/en/schools/middle-school/9399,40.81242,-73.953315,,,,,,,,,,,,,25.0,8.0,0.0,51.0,19.0,0.0
05M670,5.0,Thurgood Marshall Academy for Learning and Social Change,212-283-8055,"200-214 West 135Th Street, New York, NY 10030",10030.0,Manhattan,https://www.myschools.nyc/en/schools/middle-school/9403,40.815449,-73.944061,10.0,10.0,0.0,56.0,13.0,0.0,58.0,10.0,0.0,58.0,9.0,0.0,56.0,0.0,0.0,56.0,7.0,0.0
06M018,6.0,P.S. 018 Park Terrace,917-521-2220,"4124 9 Avenue, New York, NY 10034",10034.0,Manhattan,https://www.myschools.nyc/en/schools/middle-school/9456,40.871278,-73.911516,7.0,7.0,0.0,43.0,0.0,0.0,52.0,6.0,0.0,39.0,10.0,0.0,46.0,0.0,0.0,53.0,12.0,0.0
06M052,6.0,Harold O. Levy School,212-567-9162,"650 Academy Street, New York, NY 10034",10034.0,Manhattan,https://www.myschools.nyc/en/schools/middle-school/9464,40.866053,-73.924835,14.0,14.0,0.0,147.0,10.0,0.0,121.0,13.0,0.0,86.0,0.0,0.0,94.0,10.0,0.0,99.0,9.0,0.0
06M143,6.0,J.H.S. 143 Eleanor Roosevelt,212-927-7739,"511 West 182Nd Street, New York, NY 10033",10033.0,Manhattan,https://www.myschools.nyc/en/schools/middle-school/9475,40.848908,-73.930948,8.0,8.0,0.0,128.0,0.0,0.0,109.0,17.0,0.0,105.0,11.0,0.0,77.0,14.0,0.0,90.0,14.0,0.0
06M187,6.0,P.S./I.S. 187 Hudson Cliffs,212-927-8218,"349 Cabrini Boulevard, New York, NY 10040",10040.0,Manhattan,https://www.myschools.nyc/en/schools/middle-school/9487,40.856693,-73.937093,38.0,38.0,7.0,92.0,33.0,0.0,103.0,36.0,0.0,95.0,33.0,0.0,93.0,45.0,8.0,89.0,32.0,6.0
06M209,6.0,Hamilton Grange Middle School,2127759600,"500 West 138 Street, New York, NY 10031",10031.0,Manhattan,https://www.myschools.nyc/en/schools/middle-school/9495,40.820953,-73.951145,0.0,0.0,0.0,74.0,13.0,0.0,84.0,18.0,0.0,92.0,24.0,0.0,87.0,18.0,0.0,112.0,25.0,0.0
06M210,6.0,P.S./I.S. 210 - Twenty-first Century Academy for Community Leadership,212-283-0012,"501-503 West 152 Street, New York, NY 10031",10031.0,Manhattan,https://www.myschools.nyc/en/schools/middle-school/9496,40.829815,-73.94475,8.0,8.0,0.0,53.0,12.0,0.0,47.0,8.0,0.0,56.0,9.0,0.0,48.0,0.0,0.0,59.0,10.0,0.0
06M223,6.0,The Mott Hall School,212-281-5028,"71-111 Convent Ave, New York, NY 10027",10027.0,Manhattan,https://www.myschools.nyc/en/schools/middle-school/9500,40.815458,-73.952908,75.0,75.0,0.0,82.0,73.0,0.0,87.0,81.0,0.0,105.0,97.0,0.0,95.0,87.0,0.0,92.0,77.0,0.0
06M278,6.0,Paula Hedbavny School,917-521-2060,"421 W 219Th St, New York, NY 10034",10034.0,Manhattan,https://www.myschools.nyc/en/schools/middle-school/9502,40.871245,-73.912141,21.0,21.0,0.0,68.0,28.0,0.0,65.0,24.0,9.0,67.0,20.0,0.0,71.0,20.0,0.0,65.0,20.0,0.0
06M293,6.0,City College Academy of the Arts,212-567-3164,"4600 Broadway, New York, NY 10040",10040.0,Manhattan,https://www.myschools.nyc/en/schools/middle-school/9504,40.86079,-73.930672,16.0,16.0,0.0,78.0,8.0,0.0,89.0,13.0,0.0,80.0,0.0,0.0,91.0,11.0,0.0,87.0,9.0,0.0
06M311,6.0,Amistad Dual Language School,212-544-8021,"4862 Broadway, New York, NY 10034",10034.0,Manhattan,https://www.myschools.nyc/en/schools/middle-school/9505,40.866706,-73.923948,18.0,18.0,0.0,52.0,20.0,0.0,36.0,12.0,0.0,49.0,16.0,0.0,52.0,15.0,0.0,45.0,14.0,0.0
06M319,6.0,M.S. 319 - Maria Teresa,212-923-3827,"21 Jumel Place, New York, NY 10032",10032.0,Manhattan,https://www.myschools.nyc/en/schools/middle-school/9508,40.839305,-73.936159,18.0,18.0,0.0,194.0,23.0,0.0,147.0,27.0,0.0,119.0,15.0,0.0,147.0,7.0,0.0,108.0,0.0,0.0
06M322,6.0,Middle School 322,212-304-0853,"4600 Broadway, New York, NY 10040",10040.0,Manhattan,https://www.myschools.nyc/en/schools/middle-school/9509,40.86079,-73.930672,0.0,0.0,0.0,103.0,9.0,0.0,121.0,22.0,0.0,170.0,9.0,0.0,135.0,7.0,0.0,104.0,8.0,0.0
06M324,6.0,M.S. 324 - Patria Mirabal,212-923-4057,"21 Jumel Place, New York, NY 10032",10032.0,Manhattan,https://www.myschools.nyc/en/schools/middle-school/9510,40.839305,-73.936159,26.0,26.0,0.0,162.0,20.0,0.0,149.0,20.0,0.0,137.0,47.0,0.0,143.0,20.0,0.0,89.0,15.0,0.0
06M328,6.0,Community Math & Science Prep,917-521-2508,"401 West 164 Street, New York, NY 10032",10032.0,Manhattan,https://www.myschools.nyc/en/schools/middle-school/9511,40.836536,-73.937159,7.0,7.0,0.0,101.0,0.0,0.0,94.0,9.0,0.0,90.0,8.0,0.0,71.0,8.0,0.0,56.0,6.0,0.0
06M346,6.0,Community Health Academy of the Heights,212-342-6600,"504 West 158Th Street, New York, NY 10032",10032.0,Manhattan,https://www.myschools.nyc/en/schools/middle-school/9513,40.833687,-73.942072,0.0,0.0,0.0,92.0,0.0,0.0,94.0,16.0,0.0,100.0,0.0,0.0,93.0,0.0,0.0,94.0,0.0,0.0
06M348,6.0,Washington Heights Expeditionary Learning School,212-781-0524,"511 West 182Nd Street, New York, NY 10033",10033.0,Manhattan,https://www.myschools.nyc/en/schools/middle-school/9514,40.848908,-73.930948,0.0,0.0,0.0,84.0,10.0,0.0,87.0,6.0,0.0,86.0,0.0,0.0,80.0,0.0,0.0,85.0,6.0,0.0
06M349,6.0,Harbor Heights,212-568-6052,"306 Fort Washington Avenue, New York, NY 10033",10033.0,Manhattan,https://www.myschools.nyc/en/schools/middle-school/9518,40.845469,-73.940468,0.0,0.0,0.0,67.0,0.0,0.0,63.0,0.0,0.0,75.0,0.0,0.0,53.0,0.0,0.0,44.0,0.0,0.0
06M366,6.0,Washington Heights Academy,212-304-3320,"202 Sherman Ave, New York, NY 10034",10034.0,Manhattan,https://www.myschools.nyc/en/schools/middle-school/9519,40.865384,-73.92114,0.0,0.0,0.0,50.0,12.0,0.0,55.0,15.0,0.0,54.0,10.0,0.0,61.0,17.0,0.0,55.0,16.0,0.0
06M528,6.0,I.S. 528 Bea Fuller Rodgers School,212-740-4900,"180 Wadsworth Avenue, New York, NY 10033",10033.0,Manhattan,https://www.myschools.nyc/en/schools/middle-school/9530,40.85051,-73.934485,7.0,7.0,0.0,61.0,0.0,0.0,75.0,0.0,0.0,57.0,0.0,0.0,86.0,0.0,0.0,80.0,7.0,0.0
07X005,7.0,P.S. 5 Port Morris,718-292-2683,"564 Jackson Avenue, Bronx, NY 10455",10455.0,Bronx,https://www.myschools.nyc/en/schools/middle-school/9575,40.813728,-73.908886,0.0,0.0,0.0,91.0,15.0,0.0,71.0,8.0,0.0,97.0,17.0,0.0,94.0,9.0,0.0,81.0,0.0,0.0
07X029,7.0,P.S./M.S. 029 Melrose School,718-292-3785,"758 Courtlandt Avenue, Bronx, NY 10451",10451.0,Bronx,https://www.myschools.nyc/en/schools/middle-school/9584,40.821515,-73.917279,16.0,16.0,0.0,95.0,25.0,0.0,82.0,10.0,0.0,96.0,6.0,0.0,85.0,12.0,0.0,89.0,0.0,0.0
07X031,7.0,P.S./M.S. 031 The William Lloyd Garrison,718-292-4397,"250 East 156 Street, Bronx, NY 10451",10451.0,Bronx,https://www.myschools.nyc/en/schools/middle-school/9594,40.82316,-73.921631,8.0,8.0,0.0,80.0,12.0,0.0,78.0,9.0,0.0,85.0,0.0,0.0,69.0,20.0,0.0,84.0,12.0,0.0
07X151,7.0,J.H.S. 151 Lou Gehrig,718-292-0260,"250 East 156 Street, Bronx, NY 10451",10451.0,Bronx,https://www.myschools.nyc/en/schools/middle-school/9603,40.82316,-73.921631,11.0,11.0,0.0,90.0,9.0,0.0,92.0,0.0,0.0,91.0,0.0,0.0,85.0,6.0,0.0,61.0,0.0,0.0
07X221,7.0,South Bronx Preparatory: A College Board School,718-292-2211,"360 East 145 Street, Bronx, NY 10454",10454.0,Bronx,https://www.myschools.nyc/en/schools/middle-school/9616,40.813983,-73.920782,10.0,10.0,0.0,98.0,0.0,0.0,97.0,8.0,0.0,101.0,0.0,0.0,86.0,7.0,0.0,87.0,0.0,0.0
07X223,7.0,The Laboratory School of Finance and Technology: X223,718-585-8202,"360 East 145 Street, Bronx, NY 10454",10454.0,Bronx,https://www.myschools.nyc/en/schools/middle-school/9618,40.813983,-73.920782,18.0,18.0,0.0,98.0,8.0,0.0,99.0,18.0,0.0,98.0,10.0,0.0,79.0,12.0,0.0,110.0,0.0,0.0
07X224,7.0,Science School for Exploration and Discovery,718-665-9804,"345 Brook Avenue, Bronx, NY 10454",10454.0,Bronx,https://www.myschools.nyc/en/schools/middle-school/9619,40.81004,-73.917792,11.0,11.0,0.0,130.0,14.0,0.0,129.0,0.0,0.0,132.0,16.0,0.0,96.0,8.0,0.0,85.0,0.0,0.0
07X296,7.0,South Bronx Academy for Applied Media,718-401-0059,"778 Forest Avenue, Bronx, NY 10456",10456.0,Bronx,https://www.myschools.nyc/en/schools/middle-school/9624,40.818874,-73.905927,6.0,6.0,0.0,107.0,11.0,0.0,85.0,6.0,0.0,97.0,38.0,0.0,66.0,12.0,0.0,69.0,11.0,0.0
07X298,7.0,Academy of Public Relations,718-665-8866,"778 Forest Avenue, Bronx, NY 10456",10456.0,Bronx,https://www.myschools.nyc/en/schools/middle-school/9625,40.818874,-73.905927,22.0,22.0,0.0,94.0,23.0,0.0,84.0,9.0,0.0,91.0,0.0,0.0,90.0,26.0,0.0,79.0,27.0,0.0
07X343,7.0,Academy of Applied Mathematics and Technology,718-292-3883,"345 Brook Avenue, Bronx, NY 10454",10454.0,Bronx,https://www.myschools.nyc/en/schools/middle-school/9627,40.81004,-73.917792,25.0,25.0,0.0,101.0,25.0,0.0,95.0,31.0,0.0,102.0,21.0,0.0,99.0,9.0,0.0,101.0,23.0,0.0
07X500,7.0,Hostos-Lincoln Academy of Science,718-402-5640,"600 Saint Ann'S Avenue, Bronx, NY 10455",10455.0,Bronx,https://www.myschools.nyc/en/schools/middle-school/9638,40.815498,-73.91224,11.0,11.0,0.0,68.0,0.0,0.0,57.0,0.0,0.0,67.0,12.0,0.0,46.0,0.0,0.0,49.0,9.0,0.0
07X551,7.0,The Urban Assembly Bronx Academy of Letters,718-401-4891,"339 Morris Avenue, Bronx, NY 10451",10451.0,Bronx,https://www.myschools.nyc/en/schools/middle-school/9643,40.813641,-73.925313,0.0,0.0,0.0,81.0,10.0,0.0,81.0,0.0,0.0,87.0,14.0,0.0,83.0,0.0,0.0,66.0,0.0,0.0
07X584,7.0,I.S. 584,718-742-2900,"600 Saint Ann'S Avenue, Bronx, NY 10455",10455.0,Bronx,https://www.myschools.nyc/en/schools/middle-school/9644,40.815498,-73.91224,,,,,,,106.0,10.0,0.0,99.0,6.0,0.0,85.0,12.0,0.0,80.0,6.0,0.0
08X071,8.0,P.S. 071 Rose E. Scala,718-822-5351,"3040 Roberts Avenue, Bronx, NY 10461",10461.0,Bronx,https://www.myschools.nyc/en/schools/middle-school/9702,40.845787,-73.829829,73.0,73.0,0.0,194.0,94.0,6.0,177.0,96.0,0.0,172.0,54.0,7.0,156.0,58.0,0.0,173.0,59.0,0.0
08X101,8.0,M.S. X101 Edward R. Byrne,718-829-6372,"2750 Lafayette Avenue, Bronx, NY 10465",10465.0,Bronx,https://www.myschools.nyc/en/schools/middle-school/9716,40.827471,-73.829753,80.0,80.0,17.0,163.0,85.0,23.0,147.0,66.0,7.0,176.0,84.0,19.0,183.0,105.0,22.0,160.0,86.0,17.0
08X123,8.0,J.H.S. 123 James M. Kieran,718-328-2105,"1025 Morrison Avenue, Bronx, NY 10472",10472.0,Bronx,https://www.myschools.nyc/en/schools/middle-school/9722,40.825403,-73.873666,17.0,17.0,0.0,116.0,15.0,0.0,88.0,11.0,0.0,129.0,24.0,0.0,146.0,13.0,0.0,137.0,20.0,0.0
08X131,8.0,J.H.S. 131 Albert Einstein,718-991-7490,"885 Bolton Avenue, Bronx, NY 10473",10473.0,Bronx,https://www.myschools.nyc/en/schools/middle-school/9726,40.823526,-73.859662,23.0,23.0,0.0,150.0,10.0,0.0,159.0,22.0,0.0,166.0,19.0,0.0,143.0,21.0,0.0,160.0,18.0,0.0
08X269,8.0,Bronx Studio School for Writers and Artists,718-893-5158,"928 Simpson Street, Bronx, NY 10459",10459.0,Bronx,https://www.myschools.nyc/en/schools/middle-school/9739,40.820579,-73.893128,0.0,0.0,0.0,95.0,0.0,0.0,85.0,0.0,0.0,98.0,7.0,0.0,90.0,0.0,0.0,87.0,0.0,0.0
08X301,8.0,M.S. 301 Paul L. Dunbar,718-585-2950,"890 Cauldwell Avenue, Bronx, NY 10456",10456.0,Bronx,https://www.myschools.nyc/en/schools/middle-school/9742,40.822474,-73.907194,0.0,0.0,0.0,81.0,0.0,0.0,78.0,0.0,0.0,108.0,10.0,0.0,69.0,0.0,0.0,59.0,23.0,0.0
08X302,8.0,M.S. 302 Luisa Dessus Cruz,718-901-3520,"681 Kelly Street, Bronx, NY 10455",10455.0,Bronx,https://www.myschools.nyc/en/schools/middle-school/9743,40.815429,-73.902139,19.0,19.0,0.0,166.0,26.0,0.0,166.0,13.0,0.0,185.0,36.0,0.0,186.0,34.0,0.0,147.0,17.0,0.0
08X337,8.0,The School for Inquiry and Social Justice,718-860-4181,"1025 Morrison Avenue, Bronx, NY 10472",10472.0,Bronx,https://www.myschools.nyc/en/schools/middle-school/9751,40.825403,-73.873666,37.0,37.0,0.0,184.0,67.0,0.0,157.0,39.0,0.0,169.0,48.0,6.0,165.0,46.0,0.0,153.0,43.0,0.0
08X367,8.0,"Archimedes Academy for Math, Science and Technology Applications",718-617-5046,"456 White Plains Road, Bronx, NY 10473",10473.0,Bronx,https://www.myschools.nyc/en/schools/middle-school/9755,40.814833,-73.85658,29.0,29.0,0.0,86.0,24.0,0.0,97.0,30.0,0.0,105.0,16.0,0.0,81.0,20.0,0.0,77.0,14.0,0.0
08X371,8.0,Urban Institute of Mathematics,718-823-6042,"650 Hollywood Avenue, Bronx, NY 10465",10465.0,Bronx,https://www.myschools.nyc/en/schools/middle-school/9756,40.826526,-73.818417,20.0,20.0,0.0,115.0,30.0,0.0,112.0,39.0,0.0,129.0,36.0,0.0,127.0,27.0,0.0,127.0,40.0,0.0
08X375,8.0,The Bronx Mathematics Preparatory School,718-542-5063,"456 White Plains Road, Bronx, NY 10473",10473.0,Bronx,https://www.myschools.nyc/en/schools/middle-school/9757,40.814833,-73.85658,14.0,14.0,0.0,95.0,13.0,0.0,73.0,17.0,0.0,83.0,13.0,0.0,70.0,12.0,0.0,79.0,14.0,0.0
08X376,8.0,Antonia Pantoja Preparatory Academy: A College Board School,718-824-3152,"1980 Lafayette Avenue, Bronx, NY 10473",10473.0,Bronx,https://www.myschools.nyc/en/schools/middle-school/9759,40.82229,-73.856167,16.0,16.0,0.0,61.0,10.0,0.0,47.0,9.0,0.0,89.0,16.0,0.0,53.0,12.0,0.0,58.0,19.0,0.0
08X424,8.0,The Hunts Point School,718-328-1972,"730 Bryant Avenue, Bronx, NY 10474",10474.0,Bronx,https://www.myschools.nyc/en/schools/middle-school/9763,40.815455,-73.88577,10.0,10.0,0.0,99.0,6.0,0.0,110.0,0.0,0.0,105.0,0.0,0.0,101.0,0.0,0.0,84.0,12.0,0.0
08X448,8.0,Soundview Academy for Culture and Scholarship,718-991-4027,"885 Bolton Avenue, Bronx, NY 10473",10473.0,Bronx,https://www.myschools.nyc/en/schools/middle-school/9765,40.823526,-73.859662,21.0,21.0,0.0,123.0,20.0,0.0,121.0,19.0,0.0,133.0,21.0,0.0,126.0,26.0,0.0,130.0,19.0,0.0
08X467,8.0,Mott Hall Community School,718-829-3254,"650 Hollywood Avenue, Bronx, NY 10465",10465.0,Bronx,https://www.myschools.nyc/en/schools/middle-school/9767,40.826526,-73.818417,16.0,16.0,0.0,123.0,27.0,0.0,115.0,21.0,0.0,127.0,18.0,0.0,126.0,23.0,0.0,121.0,19.0,0.0
08X562,8.0,Blueprint Middle School,718-822-2780,"1111 Pugsley Avenue, Bronx, NY 10472",10472.0,Bronx,https://www.myschools.nyc/en/schools/middle-school/9772,40.829232,-73.856734,35.0,35.0,0.0,119.0,38.0,0.0,95.0,29.0,0.0,240.0,87.0,0.0,243.0,90.0,6.0,190.0,46.0,0.0
09X004,9.0,P.S./M.S. 004 Crotona Park West,718-583-6655,"1701 Fulton Avenue, Bronx, NY 10457",10457.0,Bronx,https://www.myschools.nyc/en/schools/middle-school/9826,40.840891,-73.898166,9.0,9.0,0.0,64.0,11.0,0.0,62.0,7.0,0.0,74.0,7.0,0.0,54.0,0.0,0.0,42.0,0.0,0.0
09X022,9.0,J.H.S. 022 Jordan L. Mott,718-681-6850,"270 East 167 Street, Bronx, NY 10456",10456.0,Bronx,https://www.myschools.nyc/en/schools/middle-school/9833,40.833131,-73.914027,11.0,11.0,0.0,144.0,13.0,0.0,149.0,24.0,0.0,159.0,21.0,0.0,135.0,10.0,0.0,126.0,21.0,0.0
09X117,9.0,I.S. 117 Joseph H. Wade,718-583-7750,"1865 Morris Avenue, Bronx, NY 10453",10453.0,Bronx,https://www.myschools.nyc/en/schools/middle-school/9867,40.848547,-73.908416,0.0,0.0,0.0,229.0,23.0,0.0,175.0,0.0,0.0,191.0,8.0,0.0,136.0,12.0,0.0,118.0,0.0,0.0
09X128,9.0,Mott Hall III,718-842-6138,"580 Crotona Park South, Bronx, NY 10456",10456.0,Bronx,https://www.myschools.nyc/en/schools/middle-school/9871,40.835286,-73.900751,78.0,78.0,6.0,116.0,59.0,0.0,118.0,68.0,0.0,118.0,109.0,0.0,111.0,96.0,0.0,107.0,42.0,0.0
09X215,9.0,Kappa,718-590-5455,"3630 Third Avenue, Bronx, NY 10456",10456.0,Bronx,https://www.myschools.nyc/en/schools/middle-school/9885,40.833511,-73.90449,38.0,38.0,0.0,61.0,16.0,0.0,80.0,25.0,0.0,95.0,20.0,0.0,122.0,41.0,0.0,101.0,20.0,0.0
09X218,9.0,P.S./I.S. 218 Rafael Hernandez Dual Language Magnet School,718-410-7230,"1220 Gerard Avenue, Bronx, NY 10452",10452.0,Bronx,https://www.myschools.nyc/en/schools/middle-school/9886,40.835847,-73.920026,54.0,54.0,0.0,83.0,59.0,0.0,97.0,63.0,0.0,118.0,46.0,0.0,113.0,57.0,0.0,106.0,31.0,0.0
09X219,9.0,I.S. 219 New Venture School,718-681-7093,"3630 Third Avenue, Bronx, NY 10456",10456.0,Bronx,https://www.myschools.nyc/en/schools/middle-school/9888,40.833511,-73.90449,8.0,8.0,0.0,98.0,7.0,0.0,107.0,7.0,0.0,120.0,0.0,0.0,113.0,11.0,0.0,112.0,0.0,0.0
09X229,9.0,I.S. 229 Roland Patterson,718-583-6266,"275 Harlem River Park Bridge, Bronx, NY 10453",10453.0,Bronx,https://www.myschools.nyc/en/schools/middle-school/9890,40.852536,-73.921467,14.0,14.0,0.0,88.0,6.0,0.0,83.0,0.0,0.0,79.0,6.0,0.0,86.0,9.0,0.0,72.0,6.0,0.0
09X231,9.0,Eagle Academy for Young Men,718-466-8000,"4143 Third Avenue, Bronx, NY 10457",10457.0,Bronx,https://www.myschools.nyc/en/schools/middle-school/9892,40.844958,-73.89705,0.0,0.0,0.0,69.0,7.0,0.0,59.0,7.0,0.0,77.0,0.0,0.0,65.0,9.0,0.0,53.0,8.0,0.0
09X232,9.0,I.S. 232,718-583-7007,"1700 Macombs Road, Bronx, NY 10453",10453.0,Bronx,https://www.myschools.nyc/en/schools/middle-school/9893,40.849532,-73.916077,32.0,32.0,0.0,184.0,34.0,0.0,171.0,41.0,0.0,170.0,29.0,0.0,170.0,31.0,0.0,147.0,8.0,0.0
09X241,9.0,The Urban Assembly School for Applied Math and Science,718-466-7800,"1595 Bathgate Avenue, Bronx, NY 10457",10457.0,Bronx,https://www.myschools.nyc/en/schools/middle-school/9897,40.839244,-73.901316,15.0,15.0,0.0,89.0,8.0,0.0,82.0,13.0,0.0,93.0,13.0,0.0,86.0,8.0,0.0,80.0,7.0,0.0
09X303,9.0,I.S. X303 Leadership & Community Service,718-583-5466,"1700 Macombs Road, Bronx, NY 10453",10453.0,Bronx,https://www.myschools.nyc/en/schools/middle-school/9906,40.849532,-73.916077,16.0,16.0,0.0,79.0,9.0,0.0,131.0,16.0,0.0,104.0,12.0,0.0,100.0,17.0,0.0,107.0,9.0,0.0
09X313,9.0,I.S. 313 School of Leadership Development,718-583-1736,"1600 Webster Avenue, Bronx, NY 10457",10457.0,Bronx,https://www.myschools.nyc/en/schools/middle-school/9908,40.840878,-73.904754,10.0,10.0,0.0,107.0,0.0,0.0,105.0,9.0,0.0,119.0,13.0,0.0,100.0,11.0,0.0,82.0,0.0,0.0
09X323,9.0,Bronx Writing Academy,718-293-9048,"270 East 167 Street, Bronx, NY 10456",10456.0,Bronx,https://www.myschools.nyc/en/schools/middle-school/9909,40.833131,-73.914027,24.0,24.0,0.0,156.0,60.0,0.0,158.0,29.0,0.0,163.0,10.0,0.0,136.0,16.0,0.0,95.0,9.0,0.0
09X324,9.0,Bronx Early College Academy for Teaching & Learning,718-681-8287,"250 East 164 Street, Bronx, NY 10456",10456.0,Bronx,https://www.myschools.nyc/en/schools/middle-school/9911,40.828696,-73.917668,21.0,21.0,0.0,77.0,11.0,0.0,65.0,13.0,0.0,99.0,0.0,0.0,58.0,13.0,0.0,58.0,0.0,0.0
09X327,9.0,Comprehensive Model School Project M.S. 327,718-294-8111,"1501 Jerome Avenue, Bronx, NY 10452",10452.0,Bronx,https://www.myschools.nyc/en/schools/middle-school/9913,40.842495,-73.916082,29.0,29.0,0.0,98.0,12.0,0.0,105.0,15.0,0.0,97.0,14.0,0.0,101.0,16.0,0.0,98.0,9.0,0.0
09X328,9.0,New Millennium Bronx Academy of the Arts,718-588-8308,"1000 Teller Avenue, Bronx, NY 10456",10456.0,Bronx,https://www.myschools.nyc/en/schools/middle-school/9914,40.827941,-73.914374,0.0,0.0,0.0,56.0,10.0,0.0,74.0,21.0,0.0,103.0,0.0,0.0,82.0,7.0,0.0,108.0,14.0,0.0
09X339,9.0,I.S. 339,718-583-6767,"1600 Webster Avenue, Bronx, NY 10457",10457.0,Bronx,https://www.myschools.nyc/en/schools/middle-school/9916,40.840878,-73.904754,7.0,7.0,0.0,179.0,30.0,0.0,172.0,27.0,0.0,173.0,0.0,0.0,187.0,17.0,0.0,125.0,25.0,0.0
09X361,9.0,The Highbridge Green School,718-410-5770,"200 West 167Th Street, Bronx, NY 10452",10452.0,Bronx,https://www.myschools.nyc/en/schools/middle-school/9919,40.838224,-73.927891,31.0,31.0,0.0,123.0,27.0,0.0,132.0,18.0,0.0,124.0,23.0,0.0,123.0,13.0,0.0,115.0,12.0,0.0
09X413,9.0,Bronx School for Medical Science,718-410-4040,"240 East 172 Street, Bronx, NY 10457",10457.0,Bronx,https://www.myschools.nyc/en/schools/middle-school/9925,40.840422,-73.91091,15.0,15.0,0.0,43.0,11.0,0.0,48.0,10.0,0.0,45.0,0.0,0.0,49.0,7.0,0.0,41.0,0.0,0.0
09X454,9.0,Science and Technology Academy: A Mott Hall School,718-293-4017,"250 East 164 Street, Bronx, NY 10456",10456.0,Bronx,https://www.myschools.nyc/en/schools/middle-school/9931,40.828696,-73.917668,40.0,40.0,0.0,153.0,44.0,0.0,155.0,35.0,0.0,166.0,38.0,0.0,153.0,52.0,0.0,137.0,40.0,0.0
09X505,9.0,"Bronx School for Law, Government and Justice",718-410-3430,"244 East 163 Street, Bronx, NY 10451",10451.0,Bronx,https://www.myschools.nyc/en/schools/middle-school/9936,40.827607,-73.918681,18.0,18.0,0.0,96.0,17.0,0.0,89.0,13.0,0.0,93.0,16.0,0.0,90.0,7.0,0.0,91.0,7.0,0.0
09X568,9.0,Young Women's Leadership School of the Bronx,718-731-2590,"1865 Morris Avenue, Bronx, NY 10453",10453.0,Bronx,https://www.myschools.nyc/en/schools/middle-school/9943,40.848547,-73.908416,16.0,16.0,0.0,77.0,33.0,0.0,76.0,30.0,0.0,75.0,34.0,0.0,85.0,31.0,0.0,71.0,7.0,0.0
09X593,9.0,South Bronx International Middle School,718-588-0341,"1000 Teller Avenue, Bronx, NY 10456",10456.0,Bronx,https://www.myschools.nyc/en/schools/middle-school/9945,40.827941,-73.914374,,,,,,,,,,,,,,,,63.0,0.0,0.0
09X594,9.0,New Pathways Academy,718-588-8349,"1000 Teller Avenue, Bronx, NY 10456",10456.0,Bronx,https://www.myschools.nyc/en/schools/middle-school/9946,40.827941,-73.914374,,,,,,,,,,59.0,0.0,0.0,80.0,0.0,0.0,88.0,8.0,0.0
10X003,10.0,P.S. 3 Raul Julia Micro Society,718-584-1899,"2100 Lafontaine Avenue, Bronx, NY 10457",10457.0,Bronx,https://www.myschools.nyc/en/schools/middle-school/10031,40.849897,-73.892289,13.0,13.0,0.0,28.0,14.0,0.0,49.0,13.0,0.0,31.0,8.0,0.0,28.0,6.0,0.0,41.0,7.0,0.0
10X015,10.0,P.S. X015 Institute for Environmental Learning,718-563-0473,"2195 Andrews Avenue, Bronx, NY 10453",10453.0,Bronx,https://www.myschools.nyc/en/schools/middle-school/10040,40.85881,-73.909746,28.0,28.0,0.0,67.0,44.0,0.0,56.0,27.0,0.0,57.0,31.0,0.0,57.0,34.0,0.0,63.0,27.0,0.0
10X020,10.0,"PS/MS 20 P.O.George J. Werdann, III",718-515-9370,"3050 Webster Avenue, Bronx, NY 10467",10467.0,Bronx,https://www.myschools.nyc/en/schools/middle-school/10042,40.870002,-73.878875,34.0,34.0,0.0,89.0,33.0,0.0,119.0,42.0,0.0,117.0,33.0,0.0,114.0,24.0,0.0,114.0,17.0,0.0
10X037,10.0,P.S. X037 - Multiple Intelligence School,718-796-0360,"360 West 230 Street, Bronx, NY 10463",10463.0,Bronx,https://www.myschools.nyc/en/schools/middle-school/10053,40.880263,-73.910466,11.0,11.0,0.0,68.0,9.0,0.0,70.0,6.0,0.0,45.0,10.0,0.0,62.0,12.0,0.0,64.0,6.0,0.0
10X045,10.0,Thomas C. Giordano Middle School 45,718-584-1660,"2502 Lorillard Place, Bronx, NY 10458",10458.0,Bronx,https://www.myschools.nyc/en/schools/middle-school/10055,40.858692,-73.887214,46.0,46.0,0.0,226.0,32.0,0.0,257.0,46.0,0.0,240.0,45.0,0.0,227.0,26.0,0.0,240.0,33.0,0.0
10X080,10.0,J.H.S. 080 The Mosholu Parkway,718-405-6300,"149 East Mosholu Pkwy N, Bronx, NY 10467",10467.0,Bronx,https://www.myschools.nyc/en/schools/middle-school/10066,40.876299,-73.881532,52.0,52.0,0.0,237.0,73.0,0.0,232.0,51.0,0.0,234.0,51.0,0.0,233.0,39.0,0.0,216.0,52.0,0.0
10X095,10.0,P.S. 095 Sheila Mencher,718-796-9200,"3961 Hillman Avenue, Bronx, NY 10463",10463.0,Bronx,https://www.myschools.nyc/en/schools/middle-school/10076,40.882898,-73.891256,31.0,31.0,0.0,158.0,34.0,0.0,161.0,42.0,0.0,159.0,56.0,0.0,170.0,66.0,0.0,140.0,33.0,0.0
10X118,10.0,J.H.S. 118 William W. Niles,718-584-2330,"577 East 179 Street, Bronx, NY 10457",10457.0,Bronx,https://www.myschools.nyc/en/schools/middle-school/10077,40.848339,-73.89308,177.0,177.0,24.0,386.0,196.0,27.0,424.0,270.0,29.0,366.0,246.0,17.0,379.0,242.0,21.0,334.0,146.0,6.0
10X141,10.0,Riverdale / Kingsbridge Academy,718-796-8516,"660 West 237 Street, Bronx, NY 10463",10463.0,Bronx,https://www.myschools.nyc/en/schools/middle-school/10078,40.888338,-73.913486,84.0,84.0,19.0,259.0,109.0,17.0,252.0,75.0,15.0,241.0,84.0,10.0,272.0,84.0,8.0,265.0,86.0,20.0
10X206,10.0,I.S. 206 Ann Mersereau,718-584-1570,"2280 Aqueduct Avenue, Bronx, NY 10468",10468.0,Bronx,https://www.myschools.nyc/en/schools/middle-school/10082,40.859686,-73.906495,9.0,9.0,0.0,75.0,6.0,0.0,69.0,8.0,0.0,74.0,9.0,0.0,73.0,7.0,0.0,96.0,10.0,0.0
10X225,10.0,Theatre Arts Production Company School,718-584-0832,"2225 Webster Avenue, Bronx, NY 10457",10457.0,Bronx,https://www.myschools.nyc/en/schools/middle-school/10089,40.854515,-73.896703,19.0,19.0,0.0,64.0,7.0,0.0,51.0,6.0,0.0,62.0,7.0,0.0,60.0,6.0,0.0,52.0,0.0,0.0
10X228,10.0,Jonas Bronck Academy,718-365-2502,"400 East Fordham Road, Bronx, NY 10458",10458.0,Bronx,https://www.myschools.nyc/en/schools/middle-school/10092,40.8609,-73.891931,52.0,52.0,0.0,89.0,58.0,0.0,90.0,64.0,0.0,91.0,62.0,0.0,88.0,61.0,0.0,88.0,49.0,0.0
10X243,10.0,West Bronx Academy for the Future,718-563-7139,"500 East Fordham Road, Bronx, NY 10458",10458.0,Bronx,https://www.myschools.nyc/en/schools/middle-school/10095,40.860043,-73.888267,12.0,12.0,0.0,91.0,18.0,0.0,95.0,18.0,0.0,86.0,12.0,0.0,97.0,14.0,0.0,91.0,0.0,0.0
10X244,10.0,The New School for Leadership and Journalism,718-601-2869,"120 West 231 Street, Bronx, NY 10463",10463.0,Bronx,https://www.myschools.nyc/en/schools/middle-school/10096,40.875916,-73.90111,99.0,99.0,0.0,280.0,73.0,0.0,270.0,91.0,0.0,291.0,76.0,0.0,270.0,67.0,0.0,252.0,75.0,0.0
10X254,10.0,I.S. 254,718-220-8700,"2452 Washington Avenue, Bronx, NY 10458",10458.0,Bronx,https://www.myschools.nyc/en/schools/middle-school/10098,40.858815,-73.890232,18.0,18.0,0.0,194.0,14.0,0.0,143.0,13.0,0.0,167.0,15.0,0.0,186.0,17.0,0.0,157.0,17.0,0.0
10X279,10.0,"P.S. 279 Captain Manuel Rivera, Jr.",718-584-6004,"2100 Walton Avenue, Bronx, NY 10453",10453.0,Bronx,https://www.myschools.nyc/en/schools/middle-school/10101,40.854432,-73.905566,23.0,23.0,0.0,124.0,25.0,0.0,139.0,38.0,0.0,128.0,29.0,0.0,126.0,27.0,0.0,116.0,21.0,0.0
10X280,10.0,P.S./M.S. 280 Mosholu Parkway,718-405-6360,"3202 Steuben Avenue, Bronx, NY 10467",10467.0,Bronx,https://www.myschools.nyc/en/schools/middle-school/10103,40.877202,-73.881773,34.0,34.0,0.0,101.0,37.0,0.0,101.0,41.0,0.0,124.0,28.0,0.0,102.0,22.0,0.0,93.0,23.0,0.0
10X308,10.0,Bronx Dance Academy School,718-515-0410,"3617 Bainbridge Avenue, Bronx, NY 10467",10467.0,Bronx,https://www.myschools.nyc/en/schools/middle-school/10109,40.885116,-73.877679,24.0,24.0,0.0,92.0,40.0,0.0,80.0,19.0,0.0,84.0,20.0,0.0,89.0,13.0,0.0,80.0,16.0,0.0
10X315,10.0,P.S. 315 Lab School,929-237-7750,"2865 Claflin Avenue, Bronx, NY 10468",10468.0,Bronx,https://www.myschools.nyc/en/schools/middle-school/10112,40.873239,-73.899722,21.0,21.0,0.0,25.0,11.0,0.0,30.0,12.0,0.0,40.0,14.0,0.0,31.0,14.0,0.0,29.0,21.0,0.0
10X331,10.0,The Bronx School of Young Leaders,718-583-4146,"40 West Tremont Avenue, Bronx, NY 10453",10453.0,Bronx,https://www.myschools.nyc/en/schools/middle-school/10114,40.851823,-73.91118,21.0,21.0,0.0,154.0,25.0,0.0,128.0,35.0,0.0,144.0,32.0,0.0,140.0,35.0,0.0,143.0,18.0,0.0
10X342,10.0,International School for Liberal Arts,718-329-8570,"2780 Reservoir Avenue, Bronx, NY 10468",10468.0,Bronx,https://www.myschools.nyc/en/schools/middle-school/10118,40.870293,-73.898309,0.0,0.0,0.0,58.0,0.0,0.0,51.0,0.0,0.0,50.0,7.0,0.0,57.0,7.0,0.0,55.0,0.0,0.0
10X363,10.0,Academy For Personal Leadership And Excellence,718-220-3139,"120 East 184 Street, Bronx, NY 10468",10468.0,Bronx,https://www.myschools.nyc/en/schools/middle-school/10125,40.859752,-73.900161,42.0,42.0,0.0,161.0,22.0,0.0,181.0,45.0,0.0,200.0,48.0,0.0,320.0,50.0,0.0,301.0,48.0,0.0
10X368,10.0,In-Tech Academy,718-432-4300,"2975 Tibbett Avenue, Bronx, NY 10463",10463.0,Bronx,https://www.myschools.nyc/en/schools/middle-school/10127,40.879368,-73.909896,27.0,27.0,0.0,177.0,34.0,0.0,155.0,27.0,0.0,175.0,28.0,0.0,159.0,27.0,0.0,142.0,18.0,0.0
10X390,10.0,M.S. 390,718-583-5501,"1930 Andrews Avenue, Bronx, NY 10453",10453.0,Bronx,https://www.myschools.nyc/en/schools/middle-school/10132,40.854701,-73.913197,26.0,26.0,0.0,150.0,32.0,0.0,163.0,24.0,0.0,182.0,21.0,0.0,175.0,37.0,0.0,174.0,29.0,0.0
10X391,10.0,The Angelo Patri Middle School,718-584-1295,"2225 Webster Avenue, Bronx, NY 10457",10457.0,Bronx,https://www.myschools.nyc/en/schools/middle-school/10133,40.854515,-73.896703,15.0,15.0,0.0,187.0,11.0,0.0,190.0,17.0,0.0,155.0,12.0,0.0,181.0,9.0,0.0,154.0,20.0,0.0
10X447,10.0,Creston Academy,718-367-5035,"125 East 181 Street, Bronx, NY 10453",10453.0,Bronx,https://www.myschools.nyc/en/schools/middle-school/10144,40.854872,-73.903458,28.0,28.0,0.0,162.0,21.0,0.0,157.0,29.0,0.0,166.0,32.0,0.0,157.0,37.0,0.0,130.0,24.0,0.0
11X019,11.0,P.S. 019 Judith K. Weiss,718-324-1924,"4318 Katonah Avenue, Bronx, NY 10470",10470.0,Bronx,https://www.myschools.nyc/en/schools/middle-school/10227,40.899295,-73.8675,36.0,36.0,0.0,57.0,27.0,0.0,46.0,24.0,0.0,61.0,28.0,0.0,60.0,30.0,0.0,56.0,32.0,0.0
11X083,11.0,P.S./M.S. 083 Donald Hertz,718-863-1993,"950 Rhinelander Avenue, Bronx, NY 10462",10462.0,Bronx,https://www.myschools.nyc/en/schools/middle-school/10235,40.849395,-73.859249,75.0,75.0,6.0,223.0,84.0,11.0,229.0,77.0,13.0,223.0,81.0,8.0,224.0,76.0,7.0,180.0,59.0,0.0
11X089,11.0,P.S. /M.S. 089 Bronx,718-653-0835,"980 Mace Avenue, Bronx, NY 10469",10469.0,Bronx,https://www.myschools.nyc/en/schools/middle-school/10240,40.863055,-73.859387,35.0,35.0,0.0,186.0,47.0,0.0,159.0,25.0,0.0,168.0,46.0,0.0,178.0,64.0,0.0,191.0,48.0,0.0
11X127,11.0,J.H.S. 127 The Castle Hill,718-892-8600,"1560 Purdy Street, Bronx, NY 10462",10462.0,Bronx,https://www.myschools.nyc/en/schools/middle-school/10259,40.837931,-73.853524,98.0,98.0,11.0,245.0,101.0,10.0,285.0,133.0,9.0,306.0,155.0,12.0,255.0,141.0,10.0,313.0,117.0,8.0
11X144,11.0,J.H.S. 144 Michelangelo,718-794-9749,"2545 Gunther Avenue, Bronx, NY 10469",10469.0,Bronx,https://www.myschools.nyc/en/schools/middle-school/10260,40.863735,-73.83607,44.0,44.0,0.0,166.0,38.0,0.0,177.0,42.0,0.0,181.0,42.0,0.0,176.0,60.0,0.0,149.0,43.0,0.0
11X175,11.0,P.S./M.S. 175 City Island,718-885-1093,"200 City Island Avenue, Bronx, NY 10464",10464.0,Bronx,https://www.myschools.nyc/en/schools/middle-school/10268,40.843873,-73.785219,14.0,14.0,0.0,41.0,16.0,0.0,44.0,14.0,0.0,54.0,15.0,0.0,26.0,7.0,0.0,44.0,13.0,0.0
11X180,11.0,M.S. 180 Dr. Daniel Hale Williams,718-904-5650,"700 Baychester Avenue, Bronx, NY 10475",10475.0,Bronx,https://www.myschools.nyc/en/schools/middle-school/10271,40.87302,-73.833776,140.0,140.0,7.0,289.0,138.0,0.0,305.0,151.0,0.0,301.0,187.0,0.0,357.0,255.0,7.0,365.0,149.0,0.0
11X181,11.0,I.S. 181 Pablo Casals,718-904-5600,"800 Baychester Avenue, Bronx, NY 10475",10475.0,Bronx,https://www.myschools.nyc/en/schools/middle-school/10272,40.87529,-73.833912,142.0,142.0,12.0,261.0,107.0,7.0,290.0,124.0,8.0,283.0,109.0,8.0,276.0,108.0,8.0,279.0,108.0,6.0
11X194,11.0,P.S./M.S. 194,718-892-5270,"2365 Waterbury Avenue, Bronx, NY 10462",10462.0,Bronx,https://www.myschools.nyc/en/schools/middle-school/10275,40.834782,-73.846632,72.0,72.0,12.0,151.0,73.0,11.0,164.0,64.0,8.0,171.0,76.0,9.0,180.0,118.0,13.0,149.0,53.0,11.0
11X287,11.0,North Bronx School of Empowerment,718-652-0519,"3710 Barnes Avenue, Bronx, NY 10467",10467.0,Bronx,https://www.myschools.nyc/en/schools/middle-school/10282,40.880873,-73.860904,16.0,16.0,0.0,95.0,22.0,0.0,182.0,23.0,0.0,205.0,31.0,0.0,170.0,14.0,0.0,135.0,16.0,0.0
11X326,11.0,Bronx Green Middle School,718-325-6593,"2441 Wallace Avenue, Bronx, NY 10467",10467.0,Bronx,https://www.myschools.nyc/en/schools/middle-school/10286,40.862109,-73.864577,24.0,24.0,0.0,132.0,31.0,0.0,133.0,37.0,0.0,144.0,26.0,0.0,135.0,33.0,0.0,144.0,16.0,0.0
11X355,11.0,Bronx Alliance Middle School,718-652-2060,"3750 Baychester Avenue, Bronx, NY 10466",10466.0,Bronx,https://www.myschools.nyc/en/schools/middle-school/10287,40.884953,-73.840524,19.0,19.0,0.0,111.0,31.0,0.0,132.0,24.0,0.0,107.0,17.0,0.0,94.0,20.0,0.0,80.0,9.0,0.0
11X370,11.0,Leaders of Tomorrow,718-994-1028,"3710 Barnes Avenue, Bronx, NY 10467",10467.0,Bronx,https://www.myschools.nyc/en/schools/middle-school/10290,40.880873,-73.860904,23.0,23.0,0.0,137.0,20.0,0.0,128.0,29.0,0.0,149.0,22.0,0.0,158.0,56.0,0.0,161.0,42.0,0.0
11X462,11.0,Cornerstone Academy for Social Action Middle School,718-794-7970,"3441 Steenwick Avenue, Bronx, NY 10475",10475.0,Bronx,https://www.myschools.nyc/en/schools/middle-school/10293,40.883025,-73.830366,23.0,23.0,0.0,85.0,21.0,0.0,94.0,24.0,0.0,88.0,13.0,0.0,76.0,8.0,0.0,62.0,11.0,0.0
11X468,11.0,Pelham Academy of Academics and Community Engagement,718-881-3136,"2441 Wallace Avenue, Bronx, NY 10467",10467.0,Bronx,https://www.myschools.nyc/en/schools/middle-school/10294,40.862109,-73.864577,38.0,38.0,0.0,133.0,47.0,0.0,102.0,35.0,0.0,104.0,37.0,0.0,123.0,30.0,0.0,124.0,21.0,0.0
11X498,11.0,P.S./M.S. 11X498 - VAN NEST ACADEMY,718-409-3001,"1640 Bronxdale Ave, Bronx, NY 10462",10462.0,Bronx,https://www.myschools.nyc/en/schools/middle-school/10297,40.84473,-73.858207,32.0,32.0,0.0,95.0,30.0,0.0,95.0,36.0,0.0,95.0,28.0,0.0,90.0,35.0,0.0,87.0,36.0,0.0
11X529,11.0,One World Middle School at Edenwald,718-515-6780,"3750 Baychester Avenue, Bronx, NY 10466",10466.0,Bronx,https://www.myschools.nyc/en/schools/middle-school/10303,40.884953,-73.840524,36.0,36.0,0.0,113.0,31.0,0.0,121.0,35.0,0.0,116.0,32.0,0.0,104.0,38.0,0.0,109.0,29.0,0.0
11X532,11.0,Baychester Middle School,718-547-1890,"3750 Baychester Avenue, Bronx, NY 10466",10466.0,Bronx,https://www.myschools.nyc/en/schools/middle-school/10304,40.884953,-73.840524,23.0,23.0,0.0,103.0,16.0,0.0,107.0,15.0,0.0,102.0,11.0,0.0,99.0,11.0,0.0,100.0,13.0,0.0
11X556,11.0,Bronx Park Middle School,718-652-6090,"2441 Wallace Avenue, Bronx, NY 10467",10467.0,Bronx,https://www.myschools.nyc/en/schools/middle-school/10308,40.862109,-73.864577,24.0,24.0,0.0,137.0,38.0,0.0,147.0,52.0,0.0,140.0,46.0,0.0,130.0,39.0,0.0,141.0,23.0,0.0
11X566,11.0,Pelham Gardens Middle School,718-794-9750,"2545 Gunther Avenue, Bronx, NY 10469",10469.0,Bronx,https://www.myschools.nyc/en/schools/middle-school/10309,40.863735,-73.83607,41.0,41.0,0.0,160.0,27.0,0.0,162.0,31.0,0.0,173.0,44.0,0.0,160.0,35.0,0.0,148.0,21.0,0.0
12X098,12.0,J.H.S. 098 Herman Ridder,718-589-8200,"1619 Boston Road, Bronx, NY 10460",10460.0,Bronx,https://www.myschools.nyc/en/schools/middle-school/10378,40.8359,-73.890458,0.0,0.0,0.0,81.0,10.0,0.0,75.0,0.0,0.0,116.0,0.0,0.0,111.0,9.0,0.0,79.0,0.0,0.0
12X129,12.0,M.S. 129 Academy for Independent Learning and Leadership,718-933-5976,"2055 Mapes Avenue, Bronx, NY 10460",10460.0,Bronx,https://www.myschools.nyc/en/schools/middle-school/10379,40.845878,-73.886184,20.0,20.0,0.0,195.0,23.0,0.0,169.0,29.0,0.0,183.0,36.0,0.0,161.0,15.0,0.0,155.0,14.0,0.0
12X190,12.0,E.S.M.T- I.S. 190,718-620-9423,"1550 Crotona Park East, Bronx, NY 10460",10460.0,Bronx,https://www.myschools.nyc/en/schools/middle-school/10384,40.836575,-73.892817,15.0,15.0,0.0,75.0,13.0,0.0,78.0,19.0,0.0,99.0,8.0,0.0,86.0,13.0,0.0,89.0,13.0,0.0
12X211,12.0,P.S. 211,718-901-0436,"1919 Prospect Avenue, Bronx, NY 10457",10457.0,Bronx,https://www.myschools.nyc/en/schools/middle-school/10389,40.843546,-73.889755,20.0,20.0,0.0,85.0,18.0,0.0,85.0,7.0,0.0,89.0,11.0,0.0,54.0,0.0,0.0,59.0,8.0,0.0
12X214,12.0,P.S. 214,718-589-6728,"1970 West Farms Road, Bronx, NY 10460",10460.0,Bronx,https://www.myschools.nyc/en/schools/middle-school/10394,40.839565,-73.880358,31.0,31.0,0.0,140.0,30.0,0.0,151.0,28.0,0.0,179.0,31.0,0.0,162.0,29.0,0.0,138.0,22.0,0.0
12X217,12.0,School of Performing Arts,718-589-4844,"977 Fox Street, Bronx, NY 10459",10459.0,Bronx,https://www.myschools.nyc/en/schools/middle-school/10397,40.822443,-73.893902,0.0,0.0,0.0,98.0,13.0,0.0,96.0,8.0,0.0,93.0,9.0,0.0,94.0,0.0,0.0,126.0,16.0,0.0
12X242,12.0,Mott Hall V,718-620-8160,"1551 East 172Nd Street, Bronx, NY 10472",10472.0,Bronx,https://www.myschools.nyc/en/schools/middle-school/10399,40.831416,-73.877785,12.0,12.0,0.0,97.0,13.0,0.0,94.0,17.0,0.0,99.0,12.0,0.0,99.0,18.0,0.0,92.0,6.0,0.0
12X267,12.0,Bronx Latin,718-991-6349,"800 Home Street, Bronx, NY 10456",10456.0,Bronx,https://www.myschools.nyc/en/schools/middle-school/10403,40.827743,-73.900105,16.0,16.0,0.0,85.0,14.0,0.0,83.0,0.0,0.0,84.0,7.0,0.0,72.0,6.0,0.0,72.0,0.0,0.0
12X271,12.0,East Bronx Academy for the Future,718-861-8641,"1716 Southern Boulevard, Bronx, NY 10460",10460.0,Bronx,https://www.myschools.nyc/en/schools/middle-school/10405,40.836356,-73.888361,7.0,7.0,0.0,101.0,0.0,0.0,88.0,14.0,0.0,98.0,0.0,0.0,92.0,0.0,0.0,86.0,10.0,0.0
12X273,12.0,Frederick Douglass Academy V. Middle School,718-561-1617,"2111 Crotona Avenue, Bronx, NY 10457",10457.0,Bronx,https://www.myschools.nyc/en/schools/middle-school/10406,40.848472,-73.888561,33.0,33.0,0.0,87.0,26.0,0.0,73.0,11.0,0.0,87.0,15.0,0.0,69.0,17.0,0.0,61.0,12.0,0.0
12X286,12.0,Fannie Lou Hamer Middle School,718-319-7270,"1001 Jennings Street, Bronx, NY 10460",10460.0,Bronx,https://www.myschools.nyc/en/schools/middle-school/10407,40.831165,-73.887094,8.0,8.0,0.0,95.0,12.0,0.0,88.0,0.0,0.0,92.0,13.0,0.0,99.0,14.0,0.0,93.0,19.0,0.0
12X316,12.0,Kappa III,718-561-3580,"2055 Mapes Avenue, Bronx, NY 10460",10460.0,Bronx,https://www.myschools.nyc/en/schools/middle-school/10412,40.845878,-73.886184,34.0,34.0,0.0,121.0,39.0,0.0,128.0,34.0,0.0,131.0,31.0,0.0,126.0,32.0,0.0,104.0,23.0,0.0
12X318,12.0,"I.S. X318 Math, Science & Technology Through Arts",718-294-8504,"1919 Prospect Avenue, Bronx, NY 10457",10457.0,Bronx,https://www.myschools.nyc/en/schools/middle-school/10413,40.843546,-73.889755,15.0,15.0,0.0,94.0,15.0,0.0,101.0,18.0,0.0,94.0,35.0,0.0,72.0,68.0,0.0,70.0,42.0,0.0
12X341,12.0,Accion Academy,718-378-1649,"977 Fox Street, Bronx, NY 10459",10459.0,Bronx,https://www.myschools.nyc/en/schools/middle-school/10414,40.822443,-73.893902,9.0,9.0,0.0,34.0,8.0,0.0,55.0,7.0,0.0,155.0,0.0,0.0,167.0,16.0,0.0,92.0,8.0,0.0
12X383,12.0,Emolior Academy,718-842-2670,"1970 West Farms Road, Bronx, NY 10460",10460.0,Bronx,https://www.myschools.nyc/en/schools/middle-school/10415,40.839565,-73.880358,21.0,21.0,0.0,84.0,13.0,0.0,84.0,20.0,0.0,103.0,19.0,0.0,99.0,23.0,0.0,132.0,32.0,0.0
13K113,13.0,M.S. 113 Ronald Edmonds Learning Center,718-834-6734,"300 Adelphi Street, Brooklyn, NY 11205",11205.0,Brooklyn,https://www.myschools.nyc/en/schools/middle-school/10484,40.688811,-73.971009,58.0,58.0,0.0,127.0,34.0,0.0,89.0,20.0,0.0,101.0,38.0,0.0,106.0,19.0,0.0,105.0,35.0,0.0
13K265,13.0,Dr. Susan S. McKinney Secondary School of the Arts,718-834-6760,"101 Park Avenue, Brooklyn, NY 11205",11205.0,Brooklyn,https://www.myschools.nyc/en/schools/middle-school/10490,40.696324,-73.97578,10.0,10.0,0.0,35.0,0.0,0.0,37.0,0.0,0.0,31.0,0.0,0.0,30.0,0.0,0.0,16.0,0.0,0.0
13K266,13.0,M.S. 266 - Park Place Community Middle School,718-245-8766,"62 Park Place, Brooklyn, NY 11217",11217.0,Brooklyn,https://www.myschools.nyc/en/schools/middle-school/10491,40.678983,-73.976497,6.0,6.0,0.0,49.0,16.0,0.0,67.0,8.0,0.0,42.0,8.0,0.0,45.0,9.0,0.0,56.0,14.0,0.0
13K301,13.0,Satellite East Middle School,7182458766,"31 New York Avenue, Brooklyn, NY 11216",11216.0,Brooklyn,https://www.myschools.nyc/en/schools/middle-school/10499,40.679097,-73.94684,9.0,9.0,0.0,36.0,6.0,0.0,31.0,0.0,0.0,37.0,0.0,0.0,29.0,0.0,0.0,27.0,0.0,0.0
13K313,13.0,Dock Street School for STEAM Studies,718-780-7660,"19 Dock Street, Brooklyn, NY 11201",11201.0,Brooklyn,https://www.myschools.nyc/en/schools/middle-school/10504,40.703106,-73.992549,11.0,11.0,0.0,18.0,0.0,0.0,15.0,0.0,0.0,82.0,32.0,0.0,88.0,45.0,6.0,91.0,25.0,0.0
13K351,13.0,The Urban Assembly Unison School,718-399-1061,"170 Gates Avenue, Brooklyn, NY 11238",11238.0,Brooklyn,https://www.myschools.nyc/en/schools/middle-school/10506,40.68505,-73.960659,16.0,16.0,0.0,49.0,21.0,0.0,45.0,21.0,0.0,57.0,15.0,0.0,52.0,12.0,0.0,51.0,10.0,0.0
13K492,13.0,Academy of Arts and Letters,718-222-1605,"225 Adelphi Street, Brooklyn, NY 11205",11205.0,Brooklyn,https://www.myschools.nyc/en/schools/middle-school/10512,40.690765,-73.971376,26.0,26.0,0.0,65.0,24.0,0.0,58.0,26.0,0.0,63.0,24.0,7.0,68.0,27.0,7.0,61.0,31.0,0.0
13K527,13.0,Urban Assembly Institute of Math and Science for Young Women,718-260-2300,"283 Adams Street, Brooklyn, NY 11201",11201.0,Brooklyn,https://www.myschools.nyc/en/schools/middle-school/10516,40.694682,-73.988853,20.0,20.0,0.0,59.0,11.0,0.0,48.0,22.0,0.0,58.0,24.0,0.0,73.0,10.0,0.0,65.0,18.0,0.0
13K691,13.0,Fort Greene Preparatory Academy,718-254-9401,"100 Clermont Avenue, Brooklyn, NY 11205",11205.0,Brooklyn,https://www.myschools.nyc/en/schools/middle-school/10522,40.694633,-73.971165,20.0,20.0,0.0,79.0,14.0,0.0,76.0,17.0,0.0,76.0,6.0,0.0,74.0,17.0,0.0,75.0,12.0,0.0
13K915,13.0,MS 915,718-834-6740,"105 Tech Place, Brooklyn, NY 11201",11201.0,Brooklyn,https://www.myschools.nyc/en/schools/middle-school/13248,40.694926,-73.986015,,,,,,,,,,,,,71.0,29.0,0.0,80.0,30.0,8.0
14K050,14.0,J.H.S. 050 John D. Wells,718-387-4184,"183 South  3 Street, Brooklyn, NY 11211",11211.0,Brooklyn,https://www.myschools.nyc/en/schools/middle-school/10563,40.711704,-73.960275,11.0,11.0,0.0,89.0,10.0,0.0,80.0,7.0,0.0,109.0,36.0,0.0,115.0,22.0,0.0,117.0,17.0,0.0
14K071,14.0,Juan Morel Campos Secondary School,718-302-7900,"215 Heyward Street, Brooklyn, NY 11206",11206.0,Brooklyn,https://www.myschools.nyc/en/schools/middle-school/10567,40.703624,-73.953146,0.0,0.0,0.0,87.0,7.0,0.0,85.0,0.0,0.0,67.0,0.0,0.0,62.0,0.0,0.0,58.0,0.0,0.0
14K084,14.0,P.S. 084 Jose De Diego,718-384-8063,"250 Berry Street, Brooklyn, NY 11211",11249.0,Brooklyn,https://www.myschools.nyc/en/schools/middle-school/10568,40.714785,-73.963,0.0,0.0,0.0,68.0,22.0,0.0,69.0,18.0,0.0,71.0,41.0,0.0,66.0,24.0,0.0,86.0,33.0,0.0
14K126,14.0,John Ericsson Middle School 126,718-782-2527,"424 Leonard Street, Brooklyn, NY 11222",11222.0,Brooklyn,https://www.myschools.nyc/en/schools/middle-school/10575,40.719819,-73.948625,31.0,31.0,0.0,141.0,28.0,0.0,136.0,35.0,0.0,108.0,31.0,0.0,125.0,33.0,0.0,105.0,17.0,0.0
14K157,14.0,P.S./I.S. 157 The Benjamin Franklin Health & Science Academy,718-622-9285,"850 Kent Avenue, Brooklyn, NY 11205",11205.0,Brooklyn,https://www.myschools.nyc/en/schools/middle-school/10583,40.695417,-73.959571,8.0,8.0,0.0,70.0,15.0,0.0,64.0,15.0,0.0,49.0,48.0,0.0,68.0,58.0,0.0,55.0,16.0,0.0
14K318,14.0,I.S. 318 Eugenio Maria De Hostos,718-782-0589,"101 Walton Street, Brooklyn, NY 11206",11206.0,Brooklyn,https://www.myschools.nyc/en/schools/middle-school/10592,40.7025,-73.948869,220.0,220.0,29.0,503.0,209.0,28.0,467.0,222.0,27.0,356.0,158.0,23.0,403.0,180.0,18.0,419.0,158.0,29.0
14K577,14.0,Conselyea Preparatory School,718-486-6211,"208 North  5 Street, Brooklyn, NY 11211",11211.0,Brooklyn,https://www.myschools.nyc/en/schools/middle-school/10607,40.715351,-73.956716,65.0,65.0,0.0,152.0,102.0,0.0,169.0,90.0,7.0,177.0,84.0,0.0,154.0,73.0,0.0,145.0,63.0,0.0
14K582,14.0,M.S. 582,718-456-8218,"207 Bushwick Avenue, Brooklyn, NY 11206",11206.0,Brooklyn,https://www.myschools.nyc/en/schools/middle-school/10608,40.708723,-73.940002,10.0,10.0,0.0,86.0,15.0,0.0,100.0,0.0,0.0,87.0,35.0,0.0,94.0,26.0,0.0,109.0,22.0,0.0
14K586,14.0,Lyons Community School,718-782-0918,"223 Graham Avenue, Brooklyn, NY 11206",11206.0,Brooklyn,https://www.myschools.nyc/en/schools/middle-school/10610,40.709941,-73.943641,0.0,0.0,0.0,51.0,0.0,0.0,72.0,6.0,0.0,57.0,0.0,0.0,43.0,0.0,0.0,52.0,0.0,0.0
14K614,14.0,Young Women's Leadership School of Brooklyn,718-387-5641,"325 Bushwick Avenue, Brooklyn, NY 11206",11206.0,Brooklyn,https://www.myschools.nyc/en/schools/middle-school/10612,40.705204,-73.939407,0.0,0.0,0.0,42.0,9.0,0.0,50.0,0.0,0.0,56.0,10.0,0.0,41.0,10.0,0.0,29.0,8.0,0.0
15K051,15.0,M.S. 51 William Alexander,718-369-7603,"350 5 Avenue, Brooklyn, NY 11215",11215.0,Brooklyn,https://www.myschools.nyc/en/schools/middle-school/10667,40.672015,-73.983947,272.0,272.0,96.0,372.0,286.0,118.0,370.0,280.0,122.0,371.0,295.0,122.0,374.0,278.0,98.0,364.0,233.0,78.0
15K088,15.0,J.H.S. 088 Peter Rouget,718-788-4482,"544 7Th Avenue, Brooklyn, NY 11215",11215.0,Brooklyn,https://www.myschools.nyc/en/schools/middle-school/10670,40.660024,-73.987637,123.0,123.0,10.0,405.0,146.0,17.0,411.0,163.0,20.0,448.0,130.0,10.0,412.0,120.0,9.0,495.0,136.0,6.0
15K136,15.0,I.S. 136 Charles O. Dewey,718-840-1950,"4004 4 Avenue, Brooklyn, NY 11232",11232.0,Brooklyn,https://www.myschools.nyc/en/schools/middle-school/10682,40.651977,-74.006862,27.0,27.0,0.0,170.0,14.0,0.0,169.0,18.0,0.0,171.0,33.0,0.0,178.0,22.0,0.0,181.0,42.0,0.0
15K442,15.0,M.S. 442 School for Innovation,718-369-4480,"500 19 Street, Brooklyn, NY 11215",11215.0,Brooklyn,https://www.myschools.nyc/en/schools/middle-school/10701,40.656944,-73.983115,10.0,10.0,0.0,68.0,19.0,0.0,79.0,25.0,0.0,71.0,22.0,0.0,90.0,32.0,0.0,130.0,49.0,17.0
15K443,15.0,New Voices School of Academic & Creative Arts,718-965-0390,"330 18 Street, Brooklyn, NY 11215",11215.0,Brooklyn,https://www.myschools.nyc/en/schools/middle-school/10702,40.660976,-73.988297,79.0,79.0,6.0,175.0,88.0,14.0,184.0,94.0,19.0,186.0,83.0,13.0,178.0,76.0,21.0,182.0,85.0,24.0
15K447,15.0,The Math & Science Exploratory School,718-330-9328,"345 Dean Street, Brooklyn, NY 11217",11217.0,Brooklyn,https://www.myschools.nyc/en/schools/middle-school/10703,40.683559,-73.98027,120.0,120.0,58.0,170.0,126.0,62.0,179.0,134.0,51.0,177.0,141.0,60.0,186.0,115.0,32.0,184.0,109.0,32.0
15K448,15.0,Brooklyn Collaborative Studies,718-923-4700,"610 Henry Street, Brooklyn, NY 11231",11231.0,Brooklyn,https://www.myschools.nyc/en/schools/middle-school/10705,40.68007,-74.001377,11.0,11.0,0.0,87.0,10.0,0.0,89.0,6.0,0.0,92.0,8.0,0.0,87.0,12.0,0.0,97.0,15.0,0.0
15K464,15.0,Park Slope Collegiate,718-832-4300,"237 7 Avenue, Brooklyn, NY 11215",11215.0,Brooklyn,https://www.myschools.nyc/en/schools/middle-school/10709,40.669629,-73.979287,12.0,12.0,0.0,46.0,12.0,0.0,74.0,21.0,0.0,73.0,19.0,0.0,81.0,21.0,0.0,92.0,34.0,0.0
15K497,15.0,The Boerum Hill School for International Studies,718-330-9390,"284 Baltic Street, Brooklyn, NY 11201",11201.0,Brooklyn,https://www.myschools.nyc/en/schools/middle-school/10711,40.685419,-73.993351,0.0,0.0,0.0,43.0,9.0,0.0,99.0,32.0,6.0,106.0,34.0,0.0,158.0,68.0,11.0,151.0,65.0,16.0
15K821,15.0,Sunset Park Prep,718-840-1951,"4004 4 Avenue, Brooklyn, NY 11232",11232.0,Brooklyn,https://www.myschools.nyc/en/schools/middle-school/10721,40.651977,-74.006862,61.0,61.0,0.0,167.0,70.0,9.0,163.0,53.0,0.0,171.0,39.0,0.0,176.0,47.0,0.0,176.0,42.0,0.0
15K839,15.0,M.S. 839,718-686-2730,"713 Caton Avenue, Brooklyn, NY 11218",11218.0,Brooklyn,https://www.myschools.nyc/en/schools/middle-school/10722,40.64759,-73.973362,0.0,0.0,0.0,,0.0,0.0,104.0,36.0,7.0,109.0,46.0,7.0,110.0,29.0,0.0,109.0,25.0,6.0
16K035,16.0,M.S. 035 Stephen Decatur,718-574-2345,"272 Macdonough Street, Brooklyn, NY 11233",11233.0,Brooklyn,https://www.myschools.nyc/en/schools/middle-school/10791,40.681896,-73.935963,15.0,15.0,0.0,67.0,22.0,0.0,81.0,27.0,0.0,98.0,20.0,0.0,74.0,17.0,0.0,57.0,25.0,0.0
16K057,16.0,J.H.S. 057 Whitelaw Reid Academy of Arts and Business,718-574-2357,"125 Stuyvesant Avenue, Brooklyn, NY 11221",11221.0,Brooklyn,https://www.myschools.nyc/en/schools/middle-school/10795,40.691274,-73.933697,11.0,11.0,0.0,68.0,7.0,0.0,81.0,9.0,0.0,66.0,18.0,0.0,56.0,12.0,0.0,33.0,0.0,0.0
16K267,16.0,"M.S. 267 Math, Science & Technology",718-574-2318,"800 Gates Avenue, Brooklyn, NY 11221",11221.0,Brooklyn,https://www.myschools.nyc/en/schools/middle-school/10805,40.68832,-73.932275,25.0,25.0,0.0,61.0,9.0,0.0,87.0,19.0,0.0,89.0,36.0,0.0,84.0,12.0,0.0,70.0,28.0,0.0
16K308,16.0,P.S. 308 Clara Cardwell,718-571-6960,"616 Quincy Street, Brooklyn, NY 11221",11221.0,Brooklyn,https://www.myschools.nyc/en/schools/middle-school/10809,40.688695,-73.935499,6.0,6.0,0.0,65.0,11.0,0.0,57.0,8.0,0.0,38.0,7.0,0.0,20.0,0.0,0.0,28.0,0.0,0.0
16K681,16.0,Madiba Prep Middle School,718-574-2804,"1014 Lafayette Avenue, Brooklyn, NY 11221",11221.0,Brooklyn,https://www.myschools.nyc/en/schools/middle-school/10822,40.692126,-73.931731,30.0,30.0,0.0,48.0,9.0,0.0,62.0,20.0,0.0,38.0,14.0,0.0,70.0,18.0,0.0,68.0,23.0,0.0
16K898,16.0,The Brooklyn Green School,929-397-3340,"130 Rochester Avenue, Brooklyn, NY 11213",11213.0,Brooklyn,https://www.myschools.nyc/en/schools/middle-school/10825,40.674656,-73.927794,,,,,,,,,,,,,,,,41.0,14.0,0.0
17K002,17.0,Parkside Preparatory Academy,718-462-6992,"655 Parkside Avenue, Brooklyn, NY 11226",11226.0,Brooklyn,https://www.myschools.nyc/en/schools/middle-school/10853,40.656183,-73.951583,58.0,58.0,0.0,174.0,37.0,0.0,157.0,69.0,0.0,171.0,68.0,0.0,159.0,51.0,0.0,136.0,22.0,0.0
17K061,17.0,M.S. 061 Dr. Gladstone H. Atwell,718-774-1002,"400 Empire Boulevard, Brooklyn, NY 11225",11225.0,Brooklyn,https://www.myschools.nyc/en/schools/middle-school/10858,40.664007,-73.94922,58.0,58.0,0.0,319.0,90.0,0.0,274.0,96.0,0.0,280.0,88.0,6.0,189.0,63.0,0.0,194.0,62.0,0.0
17K138,17.0,P.S. 138 Brooklyn,718-467-0800,"760 Prospect Place, Brooklyn, NY 11216",11216.0,Brooklyn,https://www.myschools.nyc/en/schools/middle-school/10864,40.67438,-73.951443,19.0,19.0,0.0,93.0,22.0,0.0,81.0,23.0,0.0,74.0,11.0,0.0,69.0,26.0,0.0,77.0,23.0,0.0
17K181,17.0,P.S. 181 Brooklyn,718-462-5298,"1023 New York Avenue, Brooklyn, NY 11203",11203.0,Brooklyn,https://www.myschools.nyc/en/schools/middle-school/10869,40.648215,-73.946374,30.0,30.0,0.0,88.0,18.0,0.0,83.0,28.0,0.0,74.0,28.0,0.0,77.0,32.0,0.0,82.0,17.0,0.0
17K189,17.0,P.S. 189 The Bilingual Center,718-756-0210,"1100 East New York Avenue, Brooklyn, NY 11212",11212.0,Brooklyn,https://www.myschools.nyc/en/schools/middle-school/10872,40.665565,-73.926246,54.0,54.0,7.0,141.0,57.0,0.0,120.0,49.0,0.0,155.0,49.0,0.0,118.0,30.0,0.0,116.0,33.0,0.0
17K246,17.0,M.S. 246 Walt Whitman,718-282-5230,"72 Veronica Place, Brooklyn, NY 11226",11226.0,Brooklyn,https://www.myschools.nyc/en/schools/middle-school/10880,40.648608,-73.952821,23.0,23.0,0.0,183.0,39.0,0.0,152.0,24.0,0.0,145.0,16.0,0.0,141.0,16.0,0.0,124.0,14.0,0.0
17K340,17.0,I.S. 340,718-857-5516,"227 Sterling Place, Brooklyn, NY 11238",11238.0,Brooklyn,https://www.myschools.nyc/en/schools/middle-school/10888,40.676094,-73.97038,40.0,40.0,0.0,76.0,51.0,0.0,74.0,35.0,0.0,90.0,25.0,0.0,55.0,31.0,0.0,56.0,6.0,0.0
17K352,17.0,Ebbets Field Middle School,718-941-5097,"46 Mckeever Place, Brooklyn, NY 11225",11225.0,Brooklyn,https://www.myschools.nyc/en/schools/middle-school/10889,40.665035,-73.959031,8.0,8.0,0.0,67.0,6.0,0.0,72.0,9.0,0.0,60.0,12.0,0.0,41.0,0.0,0.0,49.0,7.0,0.0
17K353,17.0,Elijah Stroud Middle School,718-638-3067,"750 Classon Avenue, Brooklyn, NY 11238",11238.0,Brooklyn,https://www.myschools.nyc/en/schools/middle-school/10890,40.674406,-73.960254,13.0,13.0,0.0,69.0,0.0,0.0,45.0,6.0,0.0,61.0,0.0,0.0,56.0,0.0,0.0,63.0,0.0,0.0
17K354,17.0,The School of Integrated Learning,718-774-0362,"1224 Park Place, Brooklyn, NY 11213",11213.0,Brooklyn,https://www.myschools.nyc/en/schools/middle-school/10891,40.672713,-73.936924,31.0,31.0,0.0,102.0,33.0,0.0,71.0,18.0,0.0,65.0,53.0,0.0,140.0,115.0,0.0,117.0,57.0,0.0
17K382,17.0,Academy for College Preparation and Career Exploration: A College Board School,718-564-2566,"911 Flatbush Avenue, Brooklyn, NY 11226",11226.0,Brooklyn,https://www.myschools.nyc/en/schools/middle-school/10895,40.649787,-73.95855,14.0,14.0,0.0,53.0,11.0,0.0,44.0,15.0,0.0,55.0,0.0,0.0,44.0,0.0,0.0,40.0,0.0,0.0
17K394,17.0,M.S. K394,718-756-3164,"188 Rochester Avenue, Brooklyn, NY 11213",11213.0,Brooklyn,https://www.myschools.nyc/en/schools/middle-school/10898,40.672762,-73.927973,23.0,23.0,0.0,57.0,29.0,0.0,56.0,12.0,0.0,50.0,17.0,0.0,44.0,0.0,0.0,49.0,0.0,0.0
17K484,17.0,Ronald Edmonds Learning Center II,718-467-0306,"430 Howard Avenue, Brooklyn, NY 11233",11233.0,Brooklyn,https://www.myschools.nyc/en/schools/middle-school/10905,40.673073,-73.919594,6.0,6.0,0.0,47.0,8.0,0.0,46.0,7.0,0.0,59.0,0.0,0.0,51.0,7.0,0.0,49.0,0.0,0.0
17K543,17.0,"Science, Technology and Research Early College High School at Erasmus",718-564-2540,"911 Flatbush Avenue, Brooklyn, NY 11226",11226.0,Brooklyn,https://www.myschools.nyc/en/schools/middle-school/10914,40.649787,-73.95855,14.0,14.0,0.0,64.0,19.0,0.0,67.0,20.0,0.0,65.0,17.0,0.0,73.0,23.0,0.0,91.0,18.0,0.0
17K590,17.0,Medgar Evers College Preparatory School,718-703-5400,"1186 Carroll Street, Brooklyn, NY 11225",11225.0,Brooklyn,https://www.myschools.nyc/en/schools/middle-school/10918,40.667195,-73.951167,26.0,26.0,0.0,95.0,34.0,0.0,88.0,15.0,0.0,112.0,23.0,0.0,124.0,25.0,0.0,165.0,27.0,0.0
17K722,17.0,New Heights Middle School,718-467-4501,"790 East New York Avenue, Brooklyn, NY 11203",11203.0,Brooklyn,https://www.myschools.nyc/en/schools/middle-school/10923,40.662447,-73.936382,13.0,13.0,0.0,110.0,13.0,0.0,72.0,13.0,0.0,76.0,16.0,0.0,103.0,30.0,0.0,94.0,12.0,0.0
18K066,18.0,P.S. 66,718-922-3505,"845 East  96 Street, Brooklyn, NY 11236",11236.0,Brooklyn,https://www.myschools.nyc/en/schools/middle-school/10982,40.64883,-73.907774,42.0,42.0,0.0,101.0,24.0,0.0,102.0,37.0,0.0,100.0,41.0,0.0,114.0,25.0,0.0,104.0,20.0,0.0
18K068,18.0,I.S. 068 Isaac Bildersee,718-241-4800,"956 East  82 Street, Brooklyn, NY 11236",11236.0,Brooklyn,https://www.myschools.nyc/en/schools/middle-school/10983,40.635553,-73.91079,27.0,27.0,0.0,146.0,8.0,0.0,143.0,16.0,0.0,127.0,17.0,0.0,96.0,6.0,0.0,64.0,10.0,0.0
18K211,18.0,I.S. 211 John Wilson,718-251-4411,"1001 East 100 Street, Brooklyn, NY 11236",11236.0,Brooklyn,https://www.myschools.nyc/en/schools/middle-school/10993,40.643278,-73.896212,55.0,55.0,0.0,181.0,30.0,0.0,185.0,36.0,0.0,201.0,62.0,0.0,126.0,50.0,0.0,98.0,19.0,0.0
18K235,18.0,The Lenox Academy,718-773-4869,"525 Lenox Road, Brooklyn, NY 11203",11203.0,Brooklyn,https://www.myschools.nyc/en/schools/middle-school/10998,40.654704,-73.941089,75.0,75.0,11.0,111.0,100.0,7.0,91.0,89.0,7.0,93.0,74.0,12.0,116.0,104.0,0.0,92.0,77.0,11.0
18K285,18.0,I.S. 285 Meyer Levin,718-451-2200,"5909 Beverly Road, Brooklyn, NY 11203",11203.0,Brooklyn,https://www.myschools.nyc/en/schools/middle-school/11011,40.646877,-73.920977,75.0,75.0,0.0,235.0,65.0,0.0,191.0,45.0,0.0,222.0,67.0,0.0,227.0,55.0,0.0,267.0,46.0,0.0
18K366,18.0,The Science And Medicine Middle School,718-688-6400,"965 East 107Th Street, Brooklyn, NY 11236",11236.0,Brooklyn,https://www.myschools.nyc/en/schools/middle-school/11012,40.647323,-73.892022,65.0,65.0,0.0,161.0,61.0,0.0,137.0,42.0,0.0,127.0,21.0,0.0,138.0,32.0,0.0,126.0,35.0,0.0
18K581,18.0,East Flatbush Community Research School,718-773-3059,"905 Winthrop Street, Brooklyn, NY 11203",11203.0,Brooklyn,https://www.myschools.nyc/en/schools/middle-school/11018,40.65843,-73.929076,21.0,21.0,0.0,45.0,23.0,0.0,32.0,18.0,0.0,110.0,12.0,0.0,73.0,8.0,0.0,92.0,7.0,0.0
18K588,18.0,Middle School for Art and Philosophy,718-342-7563,"1084 Lenox Road, Brooklyn, NY 11212",11212.0,Brooklyn,https://www.myschools.nyc/en/schools/middle-school/11019,40.658295,-73.920109,14.0,14.0,0.0,60.0,12.0,0.0,60.0,11.0,0.0,71.0,10.0,0.0,60.0,7.0,0.0,48.0,0.0,0.0
18K763,18.0,Brooklyn Science and Engineering Academy,718-240-3790,"5404 Tilden Avenue, Brooklyn, NY 11203",11203.0,Brooklyn,https://www.myschools.nyc/en/schools/middle-school/11025,40.648423,-73.925948,0.0,0.0,0.0,70.0,36.0,0.0,70.0,34.0,0.0,82.0,51.0,0.0,115.0,55.0,0.0,115.0,31.0,0.0
19K089,19.0,P.S. 089 Cypress Hills,718-964-1180,"265 Warwick Street, Brooklyn, NY 11207",11207.0,Brooklyn,https://www.myschools.nyc/en/schools/middle-school/11062,40.677697,-73.886936,13.0,13.0,0.0,60.0,10.0,0.0,54.0,17.0,0.0,51.0,17.0,0.0,65.0,21.0,0.0,60.0,7.0,0.0
19K171,19.0,I.S. 171 Abraham Lincoln,718-647-0111,"528 Ridgewood Avenue, Brooklyn, NY 11208",11208.0,Brooklyn,https://www.myschools.nyc/en/schools/middle-school/11077,40.68618,-73.869625,28.0,28.0,0.0,157.0,15.0,0.0,151.0,11.0,0.0,154.0,0.0,0.0,143.0,15.0,0.0,104.0,14.0,0.0
19K218,19.0,J.H.S. 218 James P. Sinnott,718-647-9050,"370 Fountain Avenue, Brooklyn, NY 11208",11208.0,Brooklyn,https://www.myschools.nyc/en/schools/middle-school/11090,40.670724,-73.874208,21.0,21.0,0.0,144.0,36.0,0.0,144.0,23.0,0.0,170.0,26.0,0.0,142.0,21.0,0.0,140.0,13.0,0.0
19K292,19.0,J.H.S. 292 Margaret S. Douglas,718-498-6562,"301 Vermont Street, Brooklyn, NY 11207",11207.0,Brooklyn,https://www.myschools.nyc/en/schools/middle-school/11098,40.671987,-73.893896,55.0,55.0,0.0,222.0,56.0,6.0,209.0,81.0,9.0,199.0,43.0,0.0,187.0,41.0,0.0,167.0,33.0,0.0
19K364,19.0,I.S. 364 Gateway,718-642-3007,"1426 Freeport Loop, Brooklyn, NY 11239",11239.0,Brooklyn,https://www.myschools.nyc/en/schools/middle-school/11114,40.645806,-73.881671,31.0,31.0,0.0,99.0,21.0,0.0,110.0,21.0,0.0,123.0,15.0,0.0,117.0,11.0,0.0,76.0,15.0,0.0
19K404,19.0,Academy for Young Writers,718-688-7230,"1065 Elton Street, Brooklyn, NY 11208",11239.0,Brooklyn,https://www.myschools.nyc/en/schools/middle-school/11116,40.657434,-73.874734,7.0,7.0,0.0,62.0,8.0,0.0,72.0,7.0,0.0,76.0,13.0,0.0,62.0,7.0,0.0,67.0,0.0,0.0
19K409,19.0,East New York Family Academy,718-498-5240,"145 Pennsylvania Avenue, Brooklyn, NY 11207",11207.0,Brooklyn,https://www.myschools.nyc/en/schools/middle-school/11118,40.674135,-73.89643,10.0,10.0,0.0,75.0,13.0,0.0,71.0,10.0,0.0,73.0,0.0,0.0,63.0,20.0,0.0,69.0,0.0,0.0
19K422,19.0,Spring Creek Community School,718-688-7200,"1065 Elton Street, Brooklyn, NY 11208",11239.0,Brooklyn,https://www.myschools.nyc/en/schools/middle-school/11120,40.657434,-73.874734,12.0,12.0,0.0,71.0,14.0,0.0,69.0,6.0,0.0,84.0,0.0,0.0,70.0,0.0,0.0,67.0,0.0,0.0
19K452,19.0,Frederick Douglass Academy VIII Middle School,718-348-2465,"1400 Pennsylvania Avenue, Brooklyn, NY 11239",11239.0,Brooklyn,https://www.myschools.nyc/en/schools/middle-school/11121,40.64726,-73.881114,46.0,46.0,0.0,96.0,45.0,0.0,101.0,52.0,0.0,113.0,34.0,0.0,99.0,31.0,0.0,102.0,34.0,0.0
19K654,19.0,Van Siclen Community Middle School,7189274701,"800 Van Siclen Ave, Brooklyn, NY 11207",11207.0,Brooklyn,https://www.myschools.nyc/en/schools/middle-school/11133,40.66011,-73.885387,19.0,19.0,0.0,121.0,16.0,0.0,89.0,15.0,0.0,102.0,8.0,0.0,94.0,13.0,0.0,105.0,0.0,0.0
19K661,19.0,Vista Academy,718-647-0913,"350 Linwood Street, Brooklyn, NY 11208",11208.0,Brooklyn,https://www.myschools.nyc/en/schools/middle-school/11136,40.677104,-73.883433,12.0,12.0,0.0,114.0,17.0,0.0,125.0,24.0,0.0,159.0,36.0,0.0,154.0,38.0,0.0,153.0,21.0,0.0
19K662,19.0,Liberty Avenue Middle School,718-647-1301,"350 Linwood Street, Brooklyn, NY 11208",11208.0,Brooklyn,https://www.myschools.nyc/en/schools/middle-school/11137,40.677104,-73.883433,30.0,30.0,0.0,157.0,31.0,0.0,152.0,12.0,0.0,173.0,21.0,0.0,174.0,29.0,0.0,162.0,22.0,0.0
19K663,19.0,School of the Future Brooklyn,718-345-5190,"574 Dumont Avenue, Brooklyn, NY 11207",11207.0,Brooklyn,https://www.myschools.nyc/en/schools/middle-school/11138,40.665798,-73.897723,15.0,15.0,0.0,44.0,16.0,0.0,63.0,12.0,0.0,59.0,0.0,0.0,78.0,14.0,0.0,54.0,0.0,0.0
19K678,19.0,East New York Middle School of Excellence,718-257-4061,"605 Shepherd Avenue, Brooklyn, NY 11208",11208.0,Brooklyn,https://www.myschools.nyc/en/schools/middle-school/11142,40.669387,-73.879614,15.0,15.0,0.0,83.0,18.0,0.0,77.0,16.0,0.0,87.0,8.0,0.0,79.0,0.0,0.0,84.0,0.0,0.0
19K760,19.0,Highland Park Community School,718-235-1785,"528 Ridgewood Avenue, Brooklyn, NY 11208",11208.0,Brooklyn,https://www.myschools.nyc/en/schools/middle-school/11144,40.68618,-73.869625,0.0,0.0,0.0,101.0,14.0,0.0,96.0,10.0,0.0,94.0,17.0,0.0,121.0,17.0,0.0,102.0,20.0,0.0
19K907,19.0,Legacy School of the Arts,929-397-2967,"590 Sheffield Avenue, Brooklyn, NY 11207",11207.0,Brooklyn,https://www.myschools.nyc/en/schools/middle-school/11146,40.662326,-73.894441,,,,,,,,,,,,,,,,43.0,6.0,0.0
20K030,20.0,P.S./I.S. 30 Mary White Ovington,718-491-8440,"7002 4Th Avenue, Brooklyn, NY 11209",11209.0,Brooklyn,https://www.myschools.nyc/en/schools/middle-school/11202,40.63359,-74.023948,62.0,62.0,6.0,134.0,56.0,6.0,124.0,51.0,6.0,128.0,48.0,11.0,133.0,52.0,8.0,119.0,42.0,9.0
20K062,20.0,J.H.S. 062 Ditmas,718-941-5450,"700 Cortelyou Road, Brooklyn, NY 11218",11218.0,Brooklyn,https://www.myschools.nyc/en/schools/middle-school/11206,40.638686,-73.971651,117.0,117.0,7.0,418.0,136.0,8.0,395.0,104.0,0.0,455.0,103.0,0.0,395.0,97.0,7.0,386.0,90.0,6.0
20K104,20.0,P.S./I.S. 104 The Fort Hamilton School,718-836-4630,"9115 5 Avenue, Brooklyn, NY 11209",11209.0,Brooklyn,https://www.myschools.nyc/en/schools/middle-school/11210,40.618415,-74.028842,74.0,74.0,11.0,168.0,73.0,7.0,170.0,87.0,11.0,154.0,64.0,10.0,165.0,62.0,7.0,157.0,62.0,7.0
20K163,20.0,P.S. 163 Bath Beach,718-236-9003,"109 Bay 14Th Street, Brooklyn, NY 11214",11214.0,Brooklyn,https://www.myschools.nyc/en/schools/middle-school/11218,40.606792,-74.00806,29.0,29.0,0.0,75.0,38.0,0.0,90.0,39.0,7.0,88.0,36.0,0.0,71.0,29.0,0.0,72.0,25.0,0.0
20K180,20.0,The SEEALL Academy,7188518070,"5601 16 Avenue, Brooklyn, NY 11204",11204.0,Brooklyn,https://www.myschools.nyc/en/schools/middle-school/11227,40.627029,-73.989672,90.0,90.0,17.0,170.0,94.0,19.0,175.0,113.0,38.0,157.0,84.0,26.0,146.0,81.0,24.0,169.0,92.0,18.0
20K187,20.0,The Christa McAuliffe School\I.S. 187,718-236-3394,"1171 65 Street, Brooklyn, NY 11219",11219.0,Brooklyn,https://www.myschools.nyc/en/schools/middle-school/11232,40.627784,-74.004485,341.0,341.0,296.0,344.0,319.0,268.0,278.0,251.0,205.0,264.0,239.0,195.0,334.0,293.0,214.0,340.0,315.0,221.0
20K192,20.0,P.S. 192 - The Magnet School for Math and Science Inquiry,718-633-3061,"4715 18 Avenue, Brooklyn, NY 11204",11204.0,Brooklyn,https://www.myschools.nyc/en/schools/middle-school/11233,40.629303,-73.979995,14.0,14.0,0.0,49.0,6.0,0.0,67.0,14.0,0.0,63.0,13.0,0.0,60.0,17.0,0.0,60.0,9.0,0.0
20K201,20.0,J.H.S. 201 The Dyker Heights,718-833-9363,"8010 12 Avenue, Brooklyn, NY 11228",11228.0,Brooklyn,https://www.myschools.nyc/en/schools/middle-school/11239,40.618676,-74.012722,298.0,298.0,116.0,498.0,296.0,127.0,525.0,338.0,101.0,532.0,349.0,137.0,591.0,345.0,116.0,571.0,342.0,102.0
20K220,20.0,J.H.S. 220 John J. Pershing,718-633-8200,"4812 9Th Avenue, Brooklyn, NY 11220",11220.0,Brooklyn,https://www.myschools.nyc/en/schools/middle-school/11246,40.640545,-74.000731,203.0,203.0,32.0,497.0,199.0,27.0,528.0,181.0,27.0,499.0,176.0,21.0,493.0,157.0,19.0,524.0,153.0,17.0
20K223,20.0,J.H.S. 223 The Montauk,718-438-0155,"4200 16 Avenue, Brooklyn, NY 11204",11204.0,Brooklyn,https://www.myschools.nyc/en/schools/middle-school/11247,40.634875,-73.981528,124.0,124.0,13.0,337.0,132.0,16.0,324.0,142.0,19.0,352.0,140.0,17.0,298.0,119.0,13.0,316.0,96.0,12.0
20K227,20.0,J.H.S. 227 Edward B. Shallow,718-256-8218,"6500 16 Avenue, Brooklyn, NY 11204",11204.0,Brooklyn,https://www.myschools.nyc/en/schools/middle-school/11248,40.62191,-73.995022,199.0,199.0,23.0,454.0,196.0,22.0,463.0,197.0,25.0,514.0,222.0,17.0,611.0,210.0,20.0,516.0,164.0,18.0
20K229,20.0,P.S. 229 Dyker,718-236-5447,"1400 Benson Avenue, Brooklyn, NY 11228",11228.0,Brooklyn,https://www.myschools.nyc/en/schools/middle-school/11252,40.610963,-74.013376,62.0,62.0,15.0,105.0,58.0,14.0,130.0,93.0,20.0,117.0,69.0,25.0,129.0,82.0,20.0,121.0,73.0,14.0
20K259,20.0,J.H.S. 259 William Mckinley,718-833-1000,"7305 Ft Hamilton Parkway, Brooklyn, NY 11228",11228.0,Brooklyn,https://www.myschools.nyc/en/schools/middle-school/11254,40.62668,-74.01512,253.0,253.0,93.0,565.0,322.0,83.0,580.0,309.0,86.0,638.0,344.0,94.0,612.0,325.0,78.0,578.0,318.0,82.0
20K609,20.0,Urban Assembly School for Criminal Justice,718-438-3893,"4200 16 Avenue, Brooklyn, NY 11204",11204.0,Brooklyn,https://www.myschools.nyc/en/schools/middle-school/11264,40.634875,-73.981528,13.0,13.0,0.0,70.0,21.0,0.0,77.0,24.0,0.0,84.0,12.0,0.0,79.0,14.0,0.0,71.0,15.0,0.0
20K686,20.0,Brooklyn School of Inquiry,718-621-5730,"50 Avenue P, Brooklyn, NY 11204",11204.0,Brooklyn,https://www.myschools.nyc/en/schools/middle-school/11266,40.60731,-73.986595,0.0,0.0,0.0,62.0,58.0,42.0,85.0,80.0,46.0,57.0,52.0,30.0,54.0,48.0,19.0,53.0,41.0,25.0
21K095,21.0,P.S. 095 The Gravesend,718-449-5050,"345 Van Sicklen Street, Brooklyn, NY 11223",11223.0,Brooklyn,https://www.myschools.nyc/en/schools/middle-school/11357,40.595698,-73.97518,7.0,7.0,0.0,40.0,6.0,0.0,48.0,12.0,0.0,48.0,9.0,0.0,57.0,37.0,0.0,60.0,19.0,0.0
21K096,21.0,I.S. 096 Seth Low,718-236-1344,"99 Avenue P, Brooklyn, NY 11204",11204.0,Brooklyn,https://www.myschools.nyc/en/schools/middle-school/11361,40.60754,-73.984661,65.0,65.0,6.0,231.0,70.0,0.0,261.0,114.0,9.0,304.0,96.0,6.0,283.0,89.0,0.0,267.0,71.0,0.0
21K098,21.0,I.S. 98 Bay Academy,718-891-9005,"1401 Emmons Avenue, Brooklyn, NY 11235",11235.0,Brooklyn,https://www.myschools.nyc/en/schools/middle-school/11363,40.583125,-73.954037,327.0,327.0,107.0,490.0,348.0,114.0,494.0,372.0,104.0,489.0,352.0,124.0,515.0,348.0,98.0,534.0,374.0,110.0
21K099,21.0,P.S. 099 Isaac Asimov,718-338-9201,"1120 East  10 Street, Brooklyn, NY 11230",11230.0,Brooklyn,https://www.myschools.nyc/en/schools/middle-school/11364,40.621565,-73.965595,12.0,12.0,0.0,95.0,20.0,0.0,102.0,17.0,0.0,78.0,9.0,0.0,80.0,13.0,0.0,85.0,16.0,0.0
21K121,21.0,P.S. 121 Nelson A. Rockefeller,718-377-8845,"5301 20 Avenue, Brooklyn, NY 11204",11204.0,Brooklyn,https://www.myschools.nyc/en/schools/middle-school/11371,40.623273,-73.978822,12.0,12.0,0.0,29.0,7.0,0.0,31.0,7.0,0.0,39.0,11.0,0.0,39.0,13.0,0.0,28.0,6.0,0.0
21K209,21.0,P.S. 209 Margaret Mead,718-743-1954,"2609 East  7 Street, Brooklyn, NY 11235",11235.0,Brooklyn,https://www.myschools.nyc/en/schools/middle-school/11382,40.586845,-73.96198,20.0,20.0,0.0,52.0,20.0,0.0,71.0,33.0,0.0,64.0,28.0,0.0,72.0,14.0,0.0,67.0,13.0,0.0
21K225,21.0,P.S. K225 - The Eileen E. Zaglin,718-743-9793,"1075 Ocean View Avenue, Brooklyn, NY 11235",11235.0,Brooklyn,https://www.myschools.nyc/en/schools/middle-school/11393,40.579737,-73.956329,29.0,29.0,0.0,118.0,21.0,0.0,139.0,42.0,0.0,126.0,39.0,0.0,129.0,34.0,0.0,127.0,25.0,0.0
21K226,21.0,P.S. 226 Alfred De B. Mason,718-234-4940,"6006 23 Avenue, Brooklyn, NY 11204",11204.0,Brooklyn,https://www.myschools.nyc/en/schools/middle-school/11397,40.615252,-73.97635,32.0,32.0,0.0,107.0,32.0,0.0,100.0,44.0,7.0,103.0,33.0,0.0,134.0,56.0,0.0,101.0,43.0,0.0
21K228,21.0,I.S. 228 David A. Boody,718-375-7635,"228 Avenue S, Brooklyn, NY 11223",11223.0,Brooklyn,https://www.myschools.nyc/en/schools/middle-school/11398,40.6013,-73.976953,164.0,164.0,24.0,542.0,209.0,19.0,420.0,160.0,17.0,427.0,148.0,24.0,491.0,194.0,19.0,488.0,187.0,19.0
21K238,21.0,P.S. 238 Anne Sullivan,718-339-4355,"1633 East  8 Street, Brooklyn, NY 11223",11223.0,Brooklyn,https://www.myschools.nyc/en/schools/middle-school/11399,40.608862,-73.965058,6.0,6.0,0.0,78.0,14.0,0.0,61.0,14.0,0.0,60.0,13.0,0.0,56.0,10.0,0.0,65.0,16.0,0.0
21K239,21.0,Mark Twain I.S. 239 for the Gifted & Talented,718-266-0814,"2401 Neptune Avenue, Brooklyn, NY 11224",11224.0,Brooklyn,https://www.myschools.nyc/en/schools/middle-school/11402,40.578188,-73.99203,386.0,386.0,207.0,387.0,280.0,149.0,429.0,336.0,196.0,420.0,322.0,164.0,429.0,320.0,147.0,424.0,298.0,151.0
21K281,21.0,I.S. 281 Joseph B Cavallaro,718-996-6706,"8787 24 Avenue, Brooklyn, NY 11214",11214.0,Brooklyn,https://www.myschools.nyc/en/schools/middle-school/11405,40.595341,-73.993457,162.0,162.0,23.0,397.0,150.0,22.0,408.0,171.0,30.0,506.0,185.0,19.0,448.0,191.0,23.0,408.0,145.0,18.0
21K288,21.0,P.S. 288 The Shirley Tanyhill,718-382-2100,"2950 West  25 Street, Brooklyn, NY 11224",11224.0,Brooklyn,https://www.myschools.nyc/en/schools/middle-school/11406,40.574411,-73.99194,0.0,0.0,0.0,48.0,0.0,0.0,51.0,0.0,0.0,60.0,0.0,0.0,46.0,0.0,0.0,45.0,13.0,0.0
21K303,21.0,I.S. 303 Herbert S. Eisenberg,718-996-0100,"501 West Avenue, Brooklyn, NY 11224",11224.0,Brooklyn,https://www.myschools.nyc/en/schools/middle-school/11409,40.5825,-73.973122,62.0,62.0,0.0,146.0,36.0,0.0,184.0,38.0,0.0,198.0,38.0,0.0,186.0,33.0,0.0,192.0,38.0,0.0
21K468,21.0,Kingsborough Early College School,718-333-7850,"2630 Benson Avenue, Brooklyn, NY 11214",11214.0,Brooklyn,https://www.myschools.nyc/en/schools/middle-school/11417,40.594291,-73.98577,7.0,7.0,0.0,79.0,9.0,0.0,100.0,15.0,0.0,90.0,9.0,0.0,86.0,0.0,0.0,102.0,0.0,0.0
21K690,21.0,Brooklyn Studio Secondary School,718-266-5032,"8310 21St Avenue, Brooklyn, NY 11214",11214.0,Brooklyn,https://www.myschools.nyc/en/schools/middle-school/11424,40.604879,-73.994404,16.0,16.0,0.0,85.0,15.0,0.0,99.0,19.0,0.0,114.0,16.0,0.0,111.0,20.0,0.0,112.0,15.0,0.0
22K014,22.0,J.H.S. 014 Shell Bank,718-743-0220,"2424 Batchelder Street, Brooklyn, NY 11235",11235.0,Brooklyn,https://www.myschools.nyc/en/schools/middle-school/11493,40.593521,-73.937672,40.0,40.0,0.0,221.0,45.0,0.0,213.0,41.0,0.0,198.0,48.0,0.0,186.0,46.0,0.0,179.0,32.0,0.0
22K078,22.0,J.H.S. 078 Roy H. Mann,(718( 763-4701,"1420 East  68 Street, Brooklyn, NY 11234",11234.0,Brooklyn,https://www.myschools.nyc/en/schools/middle-school/11497,40.621224,-73.91287,61.0,61.0,0.0,211.0,50.0,0.0,201.0,35.0,0.0,189.0,44.0,0.0,196.0,34.0,0.0,180.0,32.0,0.0
22K109,22.0,P.S. 109,718-693-3426,"1001 East  45 Street, Brooklyn, NY 11203",11203.0,Brooklyn,https://www.myschools.nyc/en/schools/middle-school/11500,40.636455,-73.933582,28.0,28.0,0.0,78.0,20.0,0.0,101.0,12.0,0.0,94.0,18.0,0.0,60.0,13.0,0.0,61.0,7.0,0.0
22K206,22.0,P.S. 206 Joseph F Lamb,718-743-5598,"2200 Gravesend Neck Road, Brooklyn, NY 11229",11229.0,Brooklyn,https://www.myschools.nyc/en/schools/middle-school/11523,40.597369,-73.948946,51.0,51.0,6.0,122.0,53.0,10.0,116.0,51.0,9.0,120.0,70.0,8.0,134.0,63.0,10.0,141.0,73.0,12.0
22K207,22.0,P.S. 207 Elizabeth G. Leary,718-645-8667,"4011 Fillmore Avenue, Brooklyn, NY 11234",11234.0,Brooklyn,https://www.myschools.nyc/en/schools/middle-school/11525,40.613353,-73.930129,24.0,24.0,9.0,147.0,43.0,0.0,140.0,43.0,0.0,147.0,49.0,6.0,127.0,30.0,0.0,117.0,37.0,0.0
22K234,22.0,W.A. Cunningham I.S. 234,718-645-1334,"1875 East  17 Street, Brooklyn, NY 11229",11229.0,Brooklyn,https://www.myschools.nyc/en/schools/middle-school/11531,40.60422,-73.955485,346.0,346.0,101.0,656.0,396.0,90.0,684.0,370.0,79.0,653.0,305.0,67.0,569.0,263.0,40.0,510.0,217.0,37.0
22K240,22.0,Andries Hudde,718-253-3700,"2500 Nostrand Avenue, Brooklyn, NY 11210",11210.0,Brooklyn,https://www.myschools.nyc/en/schools/middle-school/11535,40.623561,-73.946279,103.0,103.0,6.0,301.0,77.0,0.0,268.0,74.0,0.0,236.0,38.0,0.0,235.0,29.0,0.0,203.0,33.0,0.0
22K278,22.0,J.H.S. 278 Marine Park,718-375-3523,"1925 Stuart Street, Brooklyn, NY 11229",11229.0,Brooklyn,https://www.myschools.nyc/en/schools/middle-school/11544,40.60665,-73.939176,65.0,65.0,0.0,315.0,129.0,0.0,294.0,98.0,7.0,425.0,105.0,0.0,379.0,116.0,9.0,358.0,65.0,11.0
22K381,22.0,I. S. 381,718-338-1534,"2500 Nostrand Avenue, Brooklyn, NY 11210",11210.0,Brooklyn,https://www.myschools.nyc/en/schools/middle-school/11553,40.623561,-73.946279,29.0,29.0,0.0,91.0,27.0,0.0,102.0,30.0,0.0,95.0,62.0,0.0,73.0,31.0,0.0,100.0,34.0,0.0
22K890,22.0,M.S. 890,929-397-9200,"21 Hinckley Place, Brooklyn, NY 11218",11218.0,Brooklyn,https://www.myschools.nyc/en/schools/middle-school/11562,40.644469,-73.971032,,,,,,,,,,,,,106.0,51.0,0.0,95.0,32.0,0.0
23K041,23.0,P.S. 041 Francis White,718-495-7732,"411 Thatford Avenue, Brooklyn, NY 11212",11212.0,Brooklyn,https://www.myschools.nyc/en/schools/middle-school/11621,40.660306,-73.907355,0.0,0.0,0.0,48.0,0.0,0.0,62.0,0.0,0.0,67.0,0.0,0.0,51.0,0.0,0.0,53.0,0.0,0.0
23K155,23.0,P.S./ I.S. 155 Nicholas Herkimer,718-240-4340,"1355 Herkimer Street, Brooklyn, NY 11233",11233.0,Brooklyn,https://www.myschools.nyc/en/schools/middle-school/11629,40.677415,-73.908734,7.0,7.0,0.0,42.0,8.0,0.0,33.0,8.0,0.0,54.0,7.0,0.0,42.0,7.0,0.0,32.0,0.0,0.0
23K178,23.0,P.S. 178 Saint Clair Mckelway,718-495-7768,"2163 Dean Street, Brooklyn, NY 11233",11233.0,Brooklyn,https://www.myschools.nyc/en/schools/middle-school/11638,40.675024,-73.915778,6.0,6.0,0.0,30.0,0.0,0.0,30.0,0.0,0.0,35.0,6.0,0.0,42.0,6.0,0.0,40.0,10.0,0.0
23K184,23.0,P.S. 184 Newport,718-495-7776,"273 Newport Street, Brooklyn, NY 11212",11212.0,Brooklyn,https://www.myschools.nyc/en/schools/middle-school/11642,40.659966,-73.904901,0.0,0.0,0.0,45.0,0.0,0.0,49.0,0.0,0.0,55.0,0.0,0.0,41.0,0.0,0.0,48.0,0.0,0.0
23K323,23.0,P.S./I.S. 323,718-495-7781,"210 Chester Street, Brooklyn, NY 11212",11212.0,Brooklyn,https://www.myschools.nyc/en/schools/middle-school/11651,40.666545,-73.910904,13.0,13.0,0.0,63.0,7.0,0.0,70.0,10.0,0.0,67.0,0.0,0.0,63.0,0.0,0.0,45.0,6.0,0.0
23K363,23.0,Brownsville Collaborative Middle School,718-495-1202,"85 Watkins Street, Brooklyn, NY 11212",11212.0,Brooklyn,https://www.myschools.nyc/en/schools/middle-school/11658,40.670986,-73.908194,0.0,0.0,0.0,39.0,0.0,0.0,31.0,0.0,0.0,90.0,9.0,0.0,100.0,8.0,0.0,93.0,8.0,0.0
23K392,23.0,I.S. 392,718-498-2491,"104 Sutter Avenue, Brooklyn, NY 11212",11212.0,Brooklyn,https://www.myschools.nyc/en/schools/middle-school/11659,40.665965,-73.918107,56.0,56.0,0.0,92.0,68.0,0.0,94.0,46.0,0.0,96.0,90.0,0.0,104.0,100.0,0.0,91.0,46.0,0.0
23K518,23.0,Kappa V,718-922-4690,"985 Rockaway Avenue, Brooklyn, NY 11212",11212.0,Brooklyn,https://www.myschools.nyc/en/schools/middle-school/11668,40.656068,-73.907245,22.0,22.0,0.0,59.0,10.0,0.0,77.0,20.0,0.0,65.0,11.0,0.0,70.0,23.0,0.0,56.0,0.0,0.0
23K522,23.0,Mott Hall IV,718-485-5240,"1137 Herkimer Street, Brooklyn, NY 11233",11233.0,Brooklyn,https://www.myschools.nyc/en/schools/middle-school/11669,40.677805,-73.915843,11.0,11.0,0.0,54.0,12.0,0.0,61.0,9.0,0.0,56.0,6.0,0.0,52.0,0.0,0.0,61.0,9.0,0.0
23K644,23.0,Eagle Academy for Young Men II,718-495-0863,"1137 Herkimer Street, Brooklyn, NY 11233",11233.0,Brooklyn,https://www.myschools.nyc/en/schools/middle-school/11674,40.677805,-73.915843,9.0,9.0,0.0,85.0,30.0,0.0,87.0,12.0,0.0,100.0,7.0,0.0,82.0,0.0,0.0,96.0,0.0,0.0
23K664,23.0,Brooklyn Environmental Exploration School,718-453-3039,"251 Mac Dougal Street, Brooklyn, NY 11233",11233.0,Brooklyn,https://www.myschools.nyc/en/schools/middle-school/11676,40.680318,-73.910644,15.0,15.0,0.0,43.0,12.0,0.0,35.0,12.0,0.0,31.0,21.0,0.0,68.0,19.0,0.0,56.0,0.0,0.0
23K668,23.0,Riverdale Avenue Middle School,718-346-0764,"76 Riverdale Avenue, Brooklyn, NY 11212",11212.0,Brooklyn,https://www.myschools.nyc/en/schools/middle-school/11677,40.660204,-73.913933,25.0,25.0,0.0,35.0,9.0,0.0,47.0,6.0,0.0,46.0,0.0,0.0,52.0,0.0,0.0,42.0,8.0,0.0
23K671,23.0,Mott Hall Bridges Academy,718-345-6912,"210 Chester Street, Brooklyn, NY 11212",11212.0,Brooklyn,https://www.myschools.nyc/en/schools/middle-school/11678,40.666545,-73.910904,14.0,14.0,0.0,63.0,12.0,0.0,69.0,10.0,0.0,55.0,13.0,0.0,61.0,16.0,0.0,65.0,7.0,0.0
24Q005,24.0,I.S. 5 - The Walter Crowley Intermediate School,718-205-6788,"50-40 Jacobus Street, Queens, NY 11373",11373.0,Queens,https://www.myschools.nyc/en/schools/middle-school/11704,40.737718,-73.887429,233.0,233.0,55.0,600.0,265.0,54.0,629.0,264.0,40.0,615.0,229.0,43.0,580.0,239.0,35.0,579.0,172.0,27.0
24Q049,24.0,P.S. 049 Dorothy Bonawit Kole,718-326-2111,"63-60 80Th Street, Queens, NY 11379",11379.0,Queens,https://www.myschools.nyc/en/schools/middle-school/11716,40.719867,-73.875093,44.0,44.0,7.0,132.0,50.0,9.0,133.0,43.0,14.0,146.0,51.0,9.0,140.0,47.0,8.0,129.0,52.0,10.0
24Q061,24.0,I.S. 061 Leonardo Da Vinci,718-760-3233,"98-50 50 Avenue, Queens, NY 11368",11368.0,Queens,https://www.myschools.nyc/en/schools/middle-school/11721,40.742668,-73.863307,106.0,106.0,9.0,756.0,82.0,0.0,716.0,93.0,0.0,773.0,92.0,0.0,772.0,113.0,0.0,708.0,82.0,0.0
24Q073,24.0,I.S. 73 - The Frank Sansivieri Intermediate School,718-639-3817,"70-02 54 Avenue, Queens, NY 11378",11378.0,Queens,https://www.myschools.nyc/en/schools/middle-school/11726,40.729215,-73.893624,265.0,265.0,44.0,730.0,357.0,47.0,769.0,394.0,73.0,696.0,334.0,50.0,701.0,369.0,61.0,764.0,257.0,44.0
24Q077,24.0,I.S. 077,718-366-7120,"976 Seneca Avenue, Queens, NY 11385",11385.0,Queens,https://www.myschools.nyc/en/schools/middle-school/11727,40.699516,-73.90214,71.0,71.0,0.0,328.0,73.0,0.0,345.0,61.0,0.0,348.0,53.0,0.0,329.0,60.0,0.0,287.0,45.0,0.0
24Q087,24.0,P.S./I.S. 087 Middle Village,718-326-8243,"67-54 80 Street, Queens, NY 11379",11379.0,Queens,https://www.myschools.nyc/en/schools/middle-school/11730,40.711815,-73.871238,8.0,8.0,0.0,46.0,11.0,0.0,75.0,12.0,0.0,81.0,9.0,0.0,54.0,9.0,0.0,56.0,12.0,0.0
24Q093,24.0,I.S. 093 Ridgewood,718-821-4882,"66-56 Forest Avenue, Queens, NY 11385",11385.0,Queens,https://www.myschools.nyc/en/schools/middle-school/11738,40.706041,-73.902584,72.0,72.0,0.0,398.0,74.0,9.0,378.0,78.0,0.0,374.0,92.0,7.0,390.0,57.0,0.0,388.0,56.0,0.0
24Q102,24.0,P.S. 102 Bayview,718-446-3308,"55-24 Van Horn Street, Queens, NY 11373",11373.0,Queens,https://www.myschools.nyc/en/schools/middle-school/11741,40.733514,-73.877857,56.0,56.0,14.0,112.0,63.0,9.0,142.0,67.0,17.0,156.0,71.0,20.0,145.0,72.0,14.0,137.0,65.0,10.0
24Q113,24.0,P.S./I.S. 113 Anthony J. Pranzo,718-847-0724,"78-23 87Th Street, Queens, NY 11385",11385.0,Queens,https://www.myschools.nyc/en/schools/middle-school/11743,40.705516,-73.862208,28.0,28.0,0.0,115.0,26.0,0.0,133.0,26.0,0.0,101.0,15.0,0.0,102.0,22.0,0.0,100.0,22.0,0.0
24Q119,24.0,I.S. 119 The Glendale,718-326-8261,"74-01 78 Avenue, Queens, NY 11385",11385.0,Queens,https://www.myschools.nyc/en/schools/middle-school/11748,40.704406,-73.875183,135.0,135.0,63.0,232.0,120.0,54.0,219.0,104.0,59.0,177.0,85.0,33.0,221.0,87.0,31.0,216.0,81.0,34.0
24Q125,24.0,I.S. 125 Thom J. McCann Woodside,718-937-0320,"46-02 47 Avenue, Queens, NY 11377",11377.0,Queens,https://www.myschools.nyc/en/schools/middle-school/11749,40.741131,-73.918945,258.0,258.0,32.0,591.0,293.0,31.0,540.0,272.0,34.0,575.0,209.0,29.0,579.0,199.0,22.0,498.0,174.0,20.0
24Q128,24.0,"P.S. 128 The Lorraine Tuzzo, Juniper Valley Elementary School",718-326-6210,"69-10 65Th Drive, Queens, NY 11379",11379.0,Queens,https://www.myschools.nyc/en/schools/middle-school/11750,40.715344,-73.886215,32.0,32.0,7.0,99.0,36.0,6.0,117.0,46.0,9.0,101.0,30.0,0.0,126.0,41.0,0.0,111.0,45.0,0.0
24Q311,24.0,Corona Arts & Sciences Academy,718-507-3820,"98-11 44Th Avenue, Queens, NY 11368",11368.0,Queens,https://www.myschools.nyc/en/schools/middle-school/11778,40.745709,-73.865329,16.0,16.0,0.0,120.0,0.0,0.0,120.0,16.0,0.0,290.0,28.0,0.0,314.0,25.0,0.0,183.0,12.0,0.0
24Q560,24.0,"Robert F. Wagner, Jr. Secondary School for Arts and Technology",718-472-5671,"47-07 30Th Place, Queens, NY 11101",11101.0,Queens,https://www.myschools.nyc/en/schools/middle-school/11788,40.742839,-73.936782,18.0,18.0,0.0,31.0,15.0,0.0,50.0,35.0,0.0,60.0,38.0,9.0,53.0,31.0,10.0,45.0,23.0,0.0
25Q025,25.0,I.S. 025 Adrien Block,718-961-3480,"34-65 192 Street, Queens, NY 11358",11358.0,Queens,https://www.myschools.nyc/en/schools/middle-school/11870,40.765133,-73.790083,115.0,115.0,35.0,304.0,119.0,26.0,329.0,147.0,29.0,347.0,134.0,44.0,388.0,168.0,34.0,364.0,140.0,37.0
25Q164,25.0,P.S. 164 Queens Valley,718-544-1083,"138-01 77 Avenue, Queens, NY 11367",11367.0,Queens,https://www.myschools.nyc/en/schools/middle-school/11890,40.720924,-73.823362,31.0,31.0,7.0,92.0,40.0,8.0,87.0,38.0,6.0,82.0,31.0,7.0,90.0,33.0,7.0,76.0,26.0,0.0
25Q185,25.0,J.H.S. 185 Edward Bleeker,718-445-3232,"147-26 25 Drive, Queens, NY 11354",11354.0,Queens,https://www.myschools.nyc/en/schools/middle-school/11900,40.775253,-73.819347,275.0,275.0,99.0,499.0,257.0,77.0,535.0,250.0,93.0,502.0,245.0,77.0,503.0,232.0,84.0,478.0,248.0,80.0
25Q189,25.0,J.H.S. 189 Daniel Carter Beard,718-359-6676,"144-80 Barclay Avenue, Queens, NY 11355",11355.0,Queens,https://www.myschools.nyc/en/schools/middle-school/11901,40.759844,-73.820548,91.0,91.0,20.0,230.0,96.0,21.0,248.0,97.0,17.0,256.0,93.0,21.0,269.0,113.0,11.0,232.0,66.0,9.0
25Q194,25.0,J.H.S. 194 William Carr,718-746-0818,"154-60 17 Avenue, Queens, NY 11357",11357.0,Queens,https://www.myschools.nyc/en/schools/middle-school/11904,40.78365,-73.807838,138.0,138.0,45.0,375.0,142.0,42.0,392.0,147.0,54.0,417.0,156.0,49.0,433.0,180.0,52.0,415.0,194.0,74.0
25Q200,25.0,P.S./M.S. 200 - The Magnet School of Global Studies and Leadership,718-969-7780,"70-10 164 Street, Queens, NY 11365",11365.0,Queens,https://www.myschools.nyc/en/schools/middle-school/11907,40.731369,-73.805116,0.0,0.0,0.0,61.0,15.0,0.0,66.0,9.0,0.0,64.0,14.0,0.0,63.0,13.0,0.0,55.0,8.0,0.0
25Q219,25.0,P.S. 219 Paul Klapper,718-793-2130,"144-39 Gravett Road, Queens, NY 11367",11367.0,Queens,https://www.myschools.nyc/en/schools/middle-school/11917,40.735275,-73.823778,20.0,20.0,0.0,84.0,25.0,9.0,74.0,29.0,7.0,80.0,19.0,0.0,95.0,36.0,0.0,75.0,21.0,0.0
25Q237,25.0,I.S. 237,718-353-6464,"46-21 Colden Street, Queens, NY 11355",11355.0,Queens,https://www.myschools.nyc/en/schools/middle-school/11918,40.749545,-73.822073,176.0,176.0,71.0,402.0,161.0,70.0,429.0,194.0,53.0,512.0,220.0,57.0,461.0,217.0,52.0,447.0,215.0,57.0
25Q250,25.0,I.S. 250 The Robert F. Kennedy Community Middle School,718-591-9000,"158-40 76 Road, Queens, NY 11366",11366.0,Queens,https://www.myschools.nyc/en/schools/middle-school/11925,40.724458,-73.810216,18.0,18.0,0.0,132.0,24.0,0.0,159.0,41.0,0.0,135.0,46.0,0.0,133.0,16.0,0.0,119.0,22.0,0.0
25Q252,25.0,The Queens School of Inquiry,718-380-6929,"158-40 76 Road, Queens, NY 11366",11366.0,Queens,https://www.myschools.nyc/en/schools/middle-school/11927,40.724458,-73.810216,29.0,29.0,6.0,80.0,19.0,0.0,76.0,23.0,0.0,89.0,32.0,6.0,78.0,16.0,0.0,79.0,20.0,0.0
25Q281,25.0,East-West School of International Studies,718-353-0009,"46-21 Colden Street, Queens, NY 11355",11355.0,Queens,https://www.myschools.nyc/en/schools/middle-school/11930,40.749545,-73.822073,64.0,64.0,21.0,111.0,84.0,16.0,106.0,70.0,20.0,103.0,70.0,17.0,94.0,57.0,12.0,107.0,62.0,17.0
25Q285,25.0,World Journalism Preparatory: A College Board School,718-461-2219,"34-65 192 Street, Queens, NY 11358",11358.0,Queens,https://www.myschools.nyc/en/schools/middle-school/11932,40.765133,-73.790083,12.0,12.0,6.0,71.0,21.0,0.0,72.0,16.0,0.0,78.0,18.0,0.0,82.0,18.0,0.0,82.0,22.0,0.0
25Q294,25.0,BELL Academy,718-428-0587,"18-25 212 Street, Queens, NY 11360",11360.0,Queens,https://www.myschools.nyc/en/schools/middle-school/11933,40.782298,-73.779099,43.0,43.0,14.0,125.0,61.0,21.0,138.0,69.0,21.0,94.0,45.0,18.0,131.0,51.0,14.0,112.0,56.0,10.0
25Q379,25.0,College Point Collaborative,929-362-3300,"12406 14Th Avenue, Queens, NY 11356",11356.0,Queens,https://www.myschools.nyc/en/schools/middle-school/11934,40.785327,-73.843749,,,,,,,,,,,,,,,,151.0,40.0,0.0
25Q499,25.0,"The Queens College School for Math, Science and Technology",718-461-7462,"148-20 Reeves Avenue, Queens, NY 11367",11367.0,Queens,https://www.myschools.nyc/en/schools/middle-school/11937,40.739246,-73.822057,46.0,46.0,18.0,52.0,40.0,9.0,53.0,40.0,13.0,53.0,38.0,13.0,58.0,48.0,8.0,55.0,32.0,9.0
26Q067,26.0,J.H.S. 067 Louis Pasteur,718-423-8138,"51-60 Marathon Parkway, Queens, NY 11362",11362.0,Queens,https://www.myschools.nyc/en/schools/middle-school/12006,40.762708,-73.733694,204.0,204.0,84.0,303.0,221.0,98.0,309.0,211.0,82.0,277.0,177.0,78.0,319.0,213.0,81.0,337.0,219.0,97.0
26Q074,26.0,J.H.S. 074 Nathaniel Hawthorne,718-631-6800,"61-15 Oceania Street, Queens, NY 11364",11364.0,Queens,https://www.myschools.nyc/en/schools/middle-school/12007,40.745201,-73.767446,198.0,198.0,102.0,397.0,248.0,108.0,416.0,233.0,95.0,379.0,199.0,77.0,388.0,227.0,96.0,408.0,221.0,82.0
26Q158,26.0,M.S. 158 Marie Curie,718-423-8100,"46-35 Oceania Street, Queens, NY 11361",11361.0,Queens,https://www.myschools.nyc/en/schools/middle-school/12018,40.756139,-73.772862,233.0,233.0,104.0,337.0,190.0,86.0,382.0,236.0,84.0,369.0,234.0,91.0,369.0,202.0,71.0,385.0,200.0,65.0
26Q172,26.0,Irwin Altman Middle School 172,718-831-4000,"81-14 257 Street, Queens, NY 11004",11004.0,Queens,https://www.myschools.nyc/en/schools/middle-school/12023,40.741944,-73.712965,176.0,176.0,31.0,312.0,145.0,14.0,345.0,189.0,33.0,341.0,164.0,35.0,344.0,148.0,24.0,336.0,155.0,21.0
26Q178,26.0,P.S./ IS 178 Holliswood,718-464-5763,"189-10 Radnor Road, Queens, NY 11423",11423.0,Queens,https://www.myschools.nyc/en/schools/middle-school/12026,40.724479,-73.777454,18.0,18.0,0.0,56.0,34.0,7.0,62.0,23.0,0.0,58.0,24.0,6.0,65.0,17.0,0.0,54.0,14.0,0.0
26Q216,26.0,J.H.S. 216 George J. Ryan,718-358-2005,"64-20 175 Street, Queens, NY 11365",11365.0,Queens,https://www.myschools.nyc/en/schools/middle-school/12043,40.737517,-73.794031,315.0,315.0,92.0,474.0,290.0,91.0,487.0,304.0,95.0,476.0,296.0,82.0,515.0,282.0,72.0,529.0,259.0,64.0
26Q266,26.0,P.S./I.S. 266,718-479-3920,"74-10 Commonwealth Boulevard, Queens, NY 11426",11426.0,Queens,https://www.myschools.nyc/en/schools/middle-school/12048,40.746231,-73.727614,44.0,44.0,8.0,83.0,35.0,9.0,79.0,33.0,8.0,65.0,31.0,0.0,77.0,29.0,0.0,75.0,33.0,0.0
27Q042,27.0,P.S./M.S 042 R. Vernam,718-634-7914,"488 Beach  66 Street, Queens, NY 11692",11692.0,Queens,https://www.myschools.nyc/en/schools/middle-school/12092,40.594538,-73.795304,0.0,0.0,0.0,69.0,0.0,0.0,56.0,0.0,0.0,61.0,9.0,0.0,41.0,0.0,0.0,58.0,11.0,0.0
27Q043,27.0,P.S. 043,718-327-5860,"160 Beach  29 Street, Queens, NY 11691",11691.0,Queens,https://www.myschools.nyc/en/schools/middle-school/12099,40.593834,-73.76174,9.0,9.0,0.0,80.0,9.0,0.0,62.0,7.0,0.0,62.0,0.0,0.0,71.0,6.0,0.0,63.0,0.0,0.0
27Q047,27.0,P.S. 047 Chris Galas,718-634-7167,"9 Power Road, Queens, NY 11693",11693.0,Queens,https://www.myschools.nyc/en/schools/middle-school/12103,40.606353,-73.820445,0.0,0.0,0.0,10.0,0.0,0.0,15.0,0.0,0.0,11.0,0.0,0.0,17.0,0.0,0.0,29.0,0.0,0.0
27Q053,27.0,M.S. 053 Brian Piccolo,718-471-6900,"10-45 Nameoke Street, Queens, NY 11691",11691.0,Queens,https://www.myschools.nyc/en/schools/middle-school/12109,40.603622,-73.749097,14.0,14.0,0.0,132.0,16.0,0.0,120.0,16.0,0.0,109.0,9.0,0.0,78.0,0.0,0.0,60.0,9.0,0.0
27Q105,27.0,P.S. 105 The Bay School,718-474-8615,"420 Beach  51 Street, Queens, NY 11691",11691.0,Queens,https://www.myschools.nyc/en/schools/middle-school/12137,40.595779,-73.781876,14.0,14.0,0.0,90.0,13.0,0.0,82.0,7.0,0.0,86.0,0.0,0.0,83.0,0.0,0.0,91.0,0.0,0.0
27Q114,27.0,P.S./M.S. 114 Belle Harbor,718-634-3382,"134-01 Cronston Avenue, Queens, NY 11694",11694.0,Queens,https://www.myschools.nyc/en/schools/middle-school/12147,40.578261,-73.854403,0.0,0.0,0.0,44.0,0.0,0.0,29.0,0.0,0.0,41.0,0.0,0.0,29.0,0.0,0.0,30.0,7.0,0.0
27Q124,27.0,P.S. 124 Osmond A Church,718-529-2580,"129-15 150 Avenue, Queens, NY 11420",11420.0,Queens,https://www.myschools.nyc/en/schools/middle-school/12153,40.665058,-73.811701,74.0,74.0,7.0,155.0,81.0,6.0,138.0,52.0,0.0,134.0,39.0,0.0,154.0,49.0,0.0,136.0,42.0,0.0
27Q137,27.0,M.S. 137 America's School of Heroes,718-659-0471,"109-15 98 Street, Queens, NY 11417",11417.0,Queens,https://www.myschools.nyc/en/schools/middle-school/12155,40.6781,-73.839948,186.0,186.0,21.0,672.0,203.0,28.0,642.0,179.0,23.0,623.0,180.0,11.0,622.0,180.0,8.0,620.0,164.0,0.0
27Q146,27.0,P.S. 146 Howard Beach,718-659-3140,"98-01 159 Avenue, Queens, NY 11414",11414.0,Queens,https://www.myschools.nyc/en/schools/middle-school/12159,40.659873,-73.835068,12.0,12.0,0.0,53.0,13.0,0.0,76.0,11.0,0.0,55.0,0.0,0.0,66.0,7.0,0.0,60.0,8.0,0.0
27Q183,27.0,P.S. 183 Dr. Richard R. Green,718-634-9459,"2-45 Beach  79 Street, Queens, NY 11693",11693.0,Queens,https://www.myschools.nyc/en/schools/middle-school/12163,40.589508,-73.805361,0.0,0.0,0.0,48.0,0.0,0.0,53.0,0.0,0.0,47.0,0.0,0.0,39.0,0.0,0.0,52.0,22.0,0.0
27Q202,27.0,J.H.S. 202 Robert H. Goddard,718-848-0001,"138-30 Lafayette Street, Queens, NY 11417",11417.0,Queens,https://www.myschools.nyc/en/schools/middle-school/12170,40.67124,-73.845141,100.0,100.0,17.0,378.0,94.0,12.0,374.0,98.0,18.0,368.0,112.0,11.0,384.0,116.0,0.0,368.0,95.0,8.0
27Q207,27.0,P.S. 207 Rockwood Park,718-848-2700,"159-15 88 Street, Queens, NY 11414",11414.0,Queens,https://www.myschools.nyc/en/schools/middle-school/12171,40.658089,-73.844432,10.0,10.0,0.0,72.0,7.0,0.0,83.0,14.0,0.0,70.0,8.0,0.0,52.0,0.0,0.0,64.0,0.0,0.0
27Q210,27.0,J.H.S. 210 Elizabeth Blackwell,718-845-5942,"93-11 101 Avenue, Queens, NY 11416",11416.0,Queens,https://www.myschools.nyc/en/schools/middle-school/12175,40.683858,-73.84747,179.0,179.0,14.0,638.0,159.0,10.0,640.0,169.0,21.0,653.0,151.0,8.0,611.0,119.0,8.0,610.0,132.0,13.0
27Q226,27.0,J.H.S. 226 Virgil I. Grissom,718-843-2260,"121-10 Rockaway Boulevard, Queens, NY 11420",11420.0,Queens,https://www.myschools.nyc/en/schools/middle-school/12179,40.675771,-73.816938,52.0,52.0,0.0,288.0,60.0,0.0,331.0,58.0,0.0,340.0,41.0,0.0,289.0,53.0,0.0,268.0,64.0,0.0
27Q232,27.0,P.S. 232 Lindenwood,718-848-9247,"153-23 83 Street, Queens, NY 11414",11414.0,Queens,https://www.myschools.nyc/en/schools/middle-school/12180,40.665909,-73.851216,21.0,21.0,0.0,98.0,33.0,0.0,102.0,33.0,0.0,116.0,33.0,6.0,99.0,37.0,0.0,118.0,25.0,0.0
27Q262,27.0,Channel View School for Research,718-634-1970,"100-00 Beach Channel Drive, Queens, NY 11694",11694.0,Queens,https://www.myschools.nyc/en/schools/middle-school/12192,40.586066,-73.822624,18.0,18.0,0.0,86.0,17.0,0.0,96.0,15.0,0.0,138.0,34.0,0.0,135.0,26.0,0.0,145.0,24.0,0.0
27Q282,27.0,Knowledge and Power Preparatory Academy VI,718-471-6934,"8-21 Bay 25 Street, Queens, NY 11691",11691.0,Queens,https://www.myschools.nyc/en/schools/middle-school/12195,40.60201,-73.762795,52.0,52.0,0.0,86.0,25.0,0.0,84.0,42.0,0.0,83.0,39.0,0.0,90.0,29.0,0.0,88.0,47.0,0.0
27Q297,27.0,Hawtree Creek Middle School,718-659-3792,"121-10 Rockaway Boulevard, Queens, NY 11420",11420.0,Queens,https://www.myschools.nyc/en/schools/middle-school/12196,40.675771,-73.816938,23.0,23.0,0.0,164.0,27.0,0.0,121.0,25.0,0.0,122.0,19.0,0.0,126.0,38.0,0.0,126.0,26.0,0.0
27Q309,27.0,Academy of Medical Technology: A College Board School,718-471-3571,"8-21 Bay 25 Street, Queens, NY 11691",11691.0,Queens,https://www.myschools.nyc/en/schools/middle-school/12202,40.60201,-73.762795,17.0,17.0,0.0,68.0,0.0,0.0,73.0,13.0,0.0,73.0,9.0,0.0,79.0,0.0,0.0,70.0,0.0,0.0
27Q318,27.0,Waterside School For Leadership,718-634-1128,"190 Beach 110 Street, Rockaway Park, NY 11694",11694.0,Queens,https://www.myschools.nyc/en/schools/middle-school/12209,40.580928,-73.831836,0.0,0.0,0.0,76.0,8.0,0.0,78.0,0.0,0.0,80.0,17.0,0.0,71.0,12.0,0.0,72.0,14.0,0.0
27Q319,27.0,Village Academy,718-471-6042,"10-45 Nameoke Street, Queens, NY 11691",11691.0,Queens,https://www.myschools.nyc/en/schools/middle-school/12210,40.603622,-73.749097,27.0,27.0,0.0,103.0,25.0,0.0,121.0,37.0,0.0,123.0,19.0,0.0,116.0,31.0,0.0,139.0,52.0,0.0
27Q323,27.0,Scholars' Academy,718-474-6918,"320 Beach 104Th Street, Queens, NY 11694",11694.0,Queens,https://www.myschools.nyc/en/schools/middle-school/12212,40.584109,-73.825711,115.0,115.0,44.0,264.0,98.0,48.0,231.0,104.0,27.0,231.0,88.0,37.0,235.0,87.0,28.0,192.0,80.0,31.0
27Q333,27.0,Goldie Maple Academy,718-945-3300,"3-65 Beach 56 Street, Queens, NY 11692",11692.0,Queens,https://www.myschools.nyc/en/schools/middle-school/12214,40.593967,-73.786182,15.0,15.0,0.0,43.0,14.0,0.0,30.0,9.0,0.0,20.0,0.0,0.0,34.0,0.0,0.0,26.0,0.0,0.0
28Q008,28.0,J.H.S. 008 Richard S. Grossley,718-739-6883,"108-35 167 Street, Queens, NY 11433",11433.0,Queens,https://www.myschools.nyc/en/schools/middle-school/12294,40.69719,-73.787192,8.0,8.0,0.0,134.0,8.0,0.0,99.0,12.0,0.0,127.0,23.0,0.0,127.0,22.0,0.0,120.0,14.0,0.0
28Q072,28.0,Catherine & Count Basie Middle School 72,718-723-6200,"133-25 Guy R Brewer Boulevard, Queens, NY 11434",11434.0,Queens,https://www.myschools.nyc/en/schools/middle-school/12304,40.673769,-73.775951,61.0,61.0,0.0,194.0,40.0,0.0,131.0,37.0,0.0,140.0,29.0,0.0,101.0,20.0,0.0,103.0,32.0,0.0
28Q157,28.0,J.H.S. 157 Stephen A. Halsey,718-830-4910,"63-55 102Nd Street, Queens, NY 11374",11374.0,Queens,https://www.myschools.nyc/en/schools/middle-school/12326,40.732289,-73.853825,185.0,185.0,62.0,511.0,278.0,48.0,533.0,249.0,52.0,527.0,214.0,52.0,530.0,258.0,66.0,544.0,205.0,60.0
28Q167,28.0,Metropolitan Expeditionary Learning School,718-286-3500,"91-30 Metropolitan Avenue, Queens, NY 11375",11375.0,Queens,https://www.myschools.nyc/en/schools/middle-school/12331,40.711367,-73.856698,29.0,29.0,0.0,119.0,18.0,0.0,127.0,21.0,0.0,126.0,25.0,7.0,120.0,13.0,0.0,123.0,25.0,0.0
28Q190,28.0,J.H.S. 190 Russell Sage,718-830-4970,"68-17 Austin Street, Queens, NY 11375",11375.0,Queens,https://www.myschools.nyc/en/schools/middle-school/12340,40.722707,-73.851699,143.0,143.0,48.0,371.0,170.0,65.0,351.0,172.0,53.0,343.0,143.0,45.0,386.0,151.0,51.0,370.0,143.0,44.0
28Q217,28.0,J.H.S. 217 Robert A. Van Wyck,718-657-1120,"85-05 144 Street, Queens, NY 11435",11435.0,Queens,https://www.myschools.nyc/en/schools/middle-school/12345,40.710024,-73.812508,199.0,199.0,22.0,581.0,160.0,26.0,562.0,175.0,24.0,561.0,162.0,13.0,574.0,159.0,18.0,549.0,157.0,10.0
28Q284,28.0,York Early College Academy,718-262-8547,"108-35 167 Street, Queens, NY 11433",11433.0,Queens,https://www.myschools.nyc/en/schools/middle-school/12350,40.69719,-73.787192,27.0,27.0,6.0,92.0,16.0,0.0,94.0,21.0,0.0,101.0,25.0,0.0,94.0,23.0,0.0,87.0,18.0,0.0
28Q287,28.0,The Emerson School,718-657-4801,"108-35 167 Street, Queens, NY 11433",11433.0,Queens,https://www.myschools.nyc/en/schools/middle-school/12351,40.69719,-73.787192,22.0,22.0,0.0,135.0,32.0,0.0,124.0,21.0,0.0,142.0,36.0,0.0,112.0,25.0,0.0,116.0,25.0,0.0
28Q310,28.0,Queens Collegiate: A College Board School,718-658-4016,"167-01 Gothic Drive, Jamaica, NY 11432",11432.0,Queens,https://www.myschools.nyc/en/schools/middle-school/12355,40.713218,-73.797237,19.0,19.0,0.0,87.0,20.0,0.0,76.0,24.0,0.0,80.0,22.0,0.0,88.0,17.0,0.0,88.0,15.0,0.0
28Q332,28.0,Redwood Middle School,718-276-4540,"133-25 Guy R Brewer Boulevard, Queens, NY 11434",11434.0,Queens,https://www.myschools.nyc/en/schools/middle-school/12359,40.673769,-73.775951,0.0,0.0,0.0,100.0,25.0,0.0,109.0,27.0,0.0,120.0,34.0,0.0,73.0,24.0,0.0,100.0,25.0,0.0
28Q358,28.0,M.S. 358,718-558-6240,"88-08 164Th Street, Queens, NY 11432",11432.0,Queens,https://www.myschools.nyc/en/schools/middle-school/12365,40.70869,-73.79798,0.0,0.0,0.0,,0.0,0.0,123.0,47.0,0.0,132.0,35.0,0.0,133.0,46.0,0.0,125.0,42.0,0.0
28Q680,28.0,Queens Gateway to Health Sciences Secondary School,718-969-3155,"160-20 Goethals Avenue, Queens, NY 11432",11432.0,Queens,https://www.myschools.nyc/en/schools/middle-school/12370,40.718831,-73.806499,73.0,73.0,28.0,89.0,63.0,28.0,83.0,61.0,23.0,93.0,74.0,38.0,95.0,69.0,22.0,79.0,59.0,27.0
28Q896,28.0,"Young Women's Leadership School, Queens",718-725-0402,"150-91 87 Road, Queens, NY 11432",11432.0,Queens,https://www.myschools.nyc/en/schools/middle-school/12374,40.707527,-73.806412,39.0,39.0,9.0,79.0,31.0,0.0,77.0,29.0,9.0,74.0,26.0,0.0,84.0,44.0,8.0,87.0,38.0,7.0
29Q059,29.0,I.S. 059 Springfield Gardens,718-527-3501,"132-55 Ridgedale Street, Queens, NY 11413",11413.0,Queens,https://www.myschools.nyc/en/schools/middle-school/12466,40.68173,-73.753429,61.0,61.0,0.0,182.0,63.0,0.0,196.0,56.0,0.0,199.0,30.0,0.0,181.0,48.0,0.0,170.0,29.0,0.0
29Q109,29.0,Jean Nuzzi Intermediate School,718-465-0651,"213-10 92 Avenue, Queens, NY 11428",11428.0,Queens,https://www.myschools.nyc/en/schools/middle-school/12468,40.720713,-73.747001,116.0,116.0,10.0,323.0,90.0,0.0,346.0,117.0,9.0,364.0,125.0,0.0,367.0,79.0,6.0,395.0,86.0,0.0
29Q116,29.0,P.S./I.S. 116 William C. Hughley,718-526-4884,"107-25 Wren Place, Queens, NY 11433",11433.0,Queens,https://www.myschools.nyc/en/schools/middle-school/12469,40.700606,-73.782302,8.0,8.0,0.0,62.0,0.0,0.0,63.0,10.0,0.0,60.0,7.0,0.0,74.0,9.0,0.0,73.0,10.0,0.0
29Q138,29.0,P.S./M.S. 138 Sunrise,929-600-5777,"251-11 Weller Avenue, Queens, NY 11422",11422.0,Queens,https://www.myschools.nyc/en/schools/middle-school/12483,40.659728,-73.735176,23.0,23.0,0.0,100.0,15.0,0.0,102.0,10.0,0.0,115.0,23.0,0.0,110.0,16.0,0.0,95.0,17.0,0.0
29Q147,29.0,P.S./M.S. 147 Ronald McNair,718-528-2420,"218-01 116 Avenue, Queens, NY 11411",11411.0,Queens,https://www.myschools.nyc/en/schools/middle-school/12488,40.697309,-73.740948,7.0,7.0,0.0,71.0,9.0,0.0,79.0,9.0,0.0,66.0,10.0,0.0,73.0,8.0,0.0,87.0,7.0,0.0
29Q192,29.0,I.S. 192 The Linden,718-479-5540,"109-89 204 Street, Queens, NY 11412",11412.0,Queens,https://www.myschools.nyc/en/schools/middle-school/12496,40.70646,-73.753579,19.0,19.0,0.0,228.0,41.0,0.0,162.0,18.0,0.0,187.0,37.0,0.0,193.0,41.0,0.0,130.0,17.0,0.0
29Q208,29.0,P.S./I.S. 208,718-468-6420,"74-30 Commonwealth Blvd, Queens, NY 11426",11426.0,Queens,https://www.myschools.nyc/en/schools/middle-school/12499,40.745948,-73.727456,36.0,36.0,0.0,85.0,30.0,0.0,102.0,28.0,0.0,91.0,29.0,0.0,93.0,32.0,0.0,89.0,33.0,0.0
29Q238,29.0,I.S. 238 - Susan B. Anthony Academy,718-297-9821,"88-15 182 Street, Queens, NY 11423",11423.0,Queens,https://www.myschools.nyc/en/schools/middle-school/12501,40.713094,-73.780468,142.0,142.0,7.0,536.0,141.0,8.0,529.0,123.0,0.0,491.0,101.0,6.0,449.0,135.0,8.0,383.0,81.0,0.0
29Q259,29.0,Pathways College Preparatory School: A College Board School,718-454-4957,"109-89 204 Street, Queens, NY 11412",11412.0,Queens,https://www.myschools.nyc/en/schools/middle-school/12507,40.70646,-73.753579,15.0,15.0,0.0,82.0,0.0,0.0,73.0,6.0,0.0,74.0,8.0,0.0,77.0,24.0,0.0,88.0,6.0,0.0
29Q268,29.0,P.S./I.S. 268,718-206-3240,"92-07 175 Street, Queens, NY 11433",11433.0,Queens,https://www.myschools.nyc/en/schools/middle-school/12509,40.707537,-73.785626,10.0,10.0,0.0,66.0,11.0,0.0,61.0,27.0,0.0,61.0,17.0,0.0,61.0,18.0,0.0,71.0,18.0,0.0
29Q270,29.0,The Gordon Parks School,718-341-8280,"233-15 Merrick Boulevard, Queens, NY 11422",11422.0,Queens,https://www.myschools.nyc/en/schools/middle-school/12513,40.674831,-73.736713,33.0,33.0,0.0,67.0,33.0,0.0,97.0,35.0,0.0,97.0,42.0,0.0,122.0,31.0,0.0,119.0,21.0,0.0
29Q283,29.0,Preparatory Academy for Writers: A College Board School,718-949-8405,"143-10 Springfield Boulevard, Queens, NY 11413",11413.0,Queens,https://www.myschools.nyc/en/schools/middle-school/12516,40.668235,-73.756839,10.0,10.0,0.0,53.0,12.0,0.0,43.0,10.0,0.0,70.0,15.0,0.0,55.0,12.0,0.0,67.0,9.0,0.0
29Q289,29.0,Queens United Middle School,718-723-3501,"229-02 137 Avenue, Queens, NY 11413",11413.0,Queens,https://www.myschools.nyc/en/schools/middle-school/12517,40.673069,-73.743173,15.0,15.0,0.0,74.0,21.0,0.0,87.0,21.0,0.0,66.0,38.0,0.0,48.0,19.0,0.0,54.0,13.0,0.0
29Q295,29.0,P.S./I.S. 295,718-464-1433,"222-14 Jamaica Avenue, Queens, NY 11428",11428.0,Queens,https://www.myschools.nyc/en/schools/middle-school/12518,40.720619,-73.731997,25.0,25.0,0.0,60.0,25.0,0.0,62.0,27.0,0.0,55.0,23.0,0.0,59.0,16.0,0.0,60.0,15.0,0.0
29Q327,29.0,Eagle Academy for Young Men III,718-480-2600,"171-10 Linden Boulevard, Queens, NY 11434",11434.0,Queens,https://www.myschools.nyc/en/schools/middle-school/12524,40.691712,-73.778923,38.0,38.0,0.0,81.0,12.0,0.0,74.0,0.0,0.0,75.0,0.0,0.0,68.0,0.0,0.0,59.0,6.0,0.0
29Q355,29.0,Collaborative Arts Middle School,718-977-6181,"145-00 Springfield Boulevard, Queens, NY 11413",11413.0,Queens,https://www.myschools.nyc/en/schools/middle-school/12525,40.664608,-73.758784,21.0,21.0,0.0,139.0,16.0,0.0,102.0,17.0,0.0,98.0,25.0,0.0,92.0,19.0,0.0,116.0,13.0,0.0
29Q356,29.0,Community Voices Middle School,718-977-6180,"145-00 Springfield Boulevard, Queens, NY 11413",11413.0,Queens,https://www.myschools.nyc/en/schools/middle-school/12526,40.664608,-73.758784,26.0,26.0,0.0,120.0,10.0,0.0,100.0,9.0,0.0,113.0,18.0,0.0,111.0,19.0,0.0,98.0,18.0,0.0
30Q010,30.0,I.S. 010 Horace Greeley,718-278-7054,"45-11 31St Ave, Queens, NY 11103",11103.0,Queens,https://www.myschools.nyc/en/schools/middle-school/12578,40.759363,-73.912902,89.0,89.0,0.0,302.0,84.0,7.0,250.0,56.0,0.0,245.0,46.0,0.0,278.0,43.0,0.0,273.0,57.0,0.0
30Q078,30.0,P.S./I.S. 78Q,718-392-5402,"48-09 Center Boulevard, Queens, NY 11109",11109.0,Queens,https://www.myschools.nyc/en/schools/middle-school/12592,40.744753,-73.957971,13.0,13.0,0.0,35.0,20.0,0.0,27.0,14.0,0.0,44.0,23.0,0.0,46.0,21.0,0.0,46.0,22.0,0.0
30Q111,30.0,P.S. 111 Jacob Blackwell,718-786-2073,"37-15 13 Street, Queens, NY 11101",11101.0,Queens,https://www.myschools.nyc/en/schools/middle-school/12600,40.758831,-73.93938,8.0,8.0,0.0,33.0,11.0,0.0,24.0,0.0,0.0,22.0,0.0,0.0,26.0,0.0,0.0,32.0,0.0,0.0
30Q122,30.0,P.S. 122 Mamie Fay,,"21-21 Ditmars Boulevard, Queens, NY 11105",11105.0,Queens,https://www.myschools.nyc/en/schools/middle-school/12605,40.780347,-73.916655,91.0,91.0,71.0,81.0,78.0,49.0,75.0,74.0,49.0,91.0,91.0,45.0,100.0,89.0,52.0,95.0,90.0,60.0
30Q126,30.0,Albert Shanker School for Visual and Performing Arts,,"31-51 21 Street, Queens, NY 11106",11106.0,Queens,https://www.myschools.nyc/en/schools/middle-school/12609,40.766264,-73.930709,49.0,49.0,17.0,186.0,69.0,21.0,181.0,59.0,19.0,233.0,81.0,20.0,225.0,65.0,12.0,206.0,72.0,25.0
30Q127,30.0,P.S. 127 Aerospace Science Magnet School,718-446-4700,"98-01 25 Avenue, Queens, NY 11369",11369.0,Queens,https://www.myschools.nyc/en/schools/middle-school/12610,40.764646,-73.871641,32.0,32.0,0.0,116.0,15.0,0.0,145.0,28.0,0.0,156.0,26.0,0.0,149.0,31.0,0.0,159.0,27.0,0.0
30Q141,30.0,I.S. 141 The Steinway,718-278-6403,"37-11 21 Avenue, Queens, NY 11105",11105.0,Queens,https://www.myschools.nyc/en/schools/middle-school/12613,40.775589,-73.90509,182.0,182.0,29.0,402.0,168.0,31.0,348.0,170.0,26.0,382.0,176.0,19.0,399.0,231.0,23.0,397.0,164.0,18.0
30Q145,30.0,I.S. 145 Joseph Pulitzer,718-457-1242,"33-34 80 Street, Queens, NY 11372",11372.0,Queens,https://www.myschools.nyc/en/schools/middle-school/12614,40.754661,-73.887112,171.0,171.0,10.0,703.0,177.0,6.0,581.0,137.0,7.0,578.0,164.0,8.0,538.0,166.0,8.0,585.0,159.0,7.0
30Q204,30.0,I.S. 204 Oliver W. Holmes,718-937-1463,"36-41 28 Street, Queens, NY 11106",11106.0,Queens,https://www.myschools.nyc/en/schools/middle-school/12631,40.757065,-73.932664,46.0,46.0,0.0,165.0,37.0,6.0,153.0,28.0,0.0,169.0,29.0,0.0,166.0,29.0,0.0,121.0,21.0,0.0
30Q227,30.0,I.S. 227 Louis Armstrong,718-335-7500,"32-02 Junction Boulevard, Queens, NY 11369",11369.0,Queens,https://www.myschools.nyc/en/schools/middle-school/12636,40.758408,-73.874472,178.0,178.0,21.0,456.0,202.0,19.0,460.0,206.0,27.0,469.0,189.0,17.0,465.0,225.0,23.0,449.0,204.0,28.0
30Q230,30.0,I.S. 230,718-335-7648,"73-10 34 Avenue, Jackson Heights, NY 11372",11372.0,Queens,https://www.myschools.nyc/en/schools/middle-school/12639,40.752866,-73.893193,136.0,136.0,29.0,439.0,203.0,39.0,437.0,157.0,26.0,463.0,197.0,24.0,439.0,197.0,26.0,390.0,141.0,19.0
30Q235,30.0,Academy for New Americans,718-956-4140,"30-14 30 Street, Queens, NY 11102",11102.0,Queens,https://www.myschools.nyc/en/schools/middle-school/12642,40.766794,-73.9226,9.0,9.0,0.0,76.0,0.0,0.0,49.0,6.0,0.0,65.0,0.0,0.0,38.0,0.0,0.0,36.0,0.0,0.0
30Q286,30.0,"Young Women's Leadership School, Astoria",718-267-2839,"23-15 Newtown Avenue, Queens, NY 11102",11102.0,Queens,https://www.myschools.nyc/en/schools/middle-school/12645,40.771215,-73.924591,9.0,9.0,0.0,82.0,25.0,0.0,84.0,29.0,0.0,86.0,23.0,6.0,74.0,18.0,0.0,88.0,27.0,0.0
30Q291,30.0,Hunters Point Community Middle School,718-609-3300,"1-50 51St Avenue, Queens, NY 11101",11101.0,Queens,https://www.myschools.nyc/en/schools/middle-school/12647,40.742956,-73.959196,55.0,55.0,6.0,132.0,55.0,0.0,141.0,65.0,11.0,153.0,50.0,6.0,143.0,57.0,12.0,146.0,100.0,6.0
30Q300,30.0,The 30th Avenue School,718-726-0501,"28-37 29 Street, Queens, NY 11102",11102.0,Queens,https://www.myschools.nyc/en/schools/middle-school/12648,40.768985,-73.922428,0.0,0.0,0.0,25.0,25.0,17.0,41.0,39.0,26.0,65.0,64.0,36.0,47.0,42.0,25.0,46.0,42.0,24.0
30Q580,30.0,Baccalaureate School for Global Education,718-361-5275,"34-12 36 Avenue, Queens, NY 11106",11106.0,Queens,https://www.myschools.nyc/en/schools/middle-school/12662,40.755366,-73.927169,71.0,71.0,58.0,105.0,79.0,56.0,119.0,94.0,62.0,64.0,52.0,41.0,60.0,34.0,26.0,59.0,36.0,14.0
31R002,31.0,I.S. R002 George L. Egbert,718-987-5336,"333 Midland Avenue, Staten Island, NY 10306",10306.0,Staten is,https://www.myschools.nyc/en/schools/middle-school/12727,40.576725,-74.100726,76.0,76.0,11.0,291.0,80.0,8.0,289.0,75.0,0.0,327.0,86.0,13.0,346.0,101.0,11.0,340.0,93.0,9.0
31R007,31.0,I.S. 007 Elias Bernstein,718-697-8488,"1270 Huguenot Avenue, Staten Island, NY 10312",10312.0,Staten is,https://www.myschools.nyc/en/schools/middle-school/12737,40.523757,-74.185941,136.0,136.0,22.0,398.0,126.0,20.0,394.0,129.0,22.0,375.0,118.0,22.0,397.0,101.0,12.0,397.0,117.0,27.0
31R024,31.0,I.S. 024 Myra S. Barnes,718-982-4700,"750 Durant Avenue, Staten Island, NY 10308",10308.0,Staten is,https://www.myschools.nyc/en/schools/middle-school/12766,40.546081,-74.14584,179.0,179.0,29.0,459.0,160.0,22.0,384.0,132.0,11.0,454.0,156.0,27.0,437.0,142.0,13.0,428.0,123.0,13.0
31R027,31.0,I.S. 027 Anning S. Prall,718-981-8800,"11 Clove Lake Place, Staten Island, NY 10310",10310.0,Staten is,https://www.myschools.nyc/en/schools/middle-school/12769,40.628128,-74.117062,95.0,95.0,22.0,357.0,99.0,24.0,328.0,77.0,14.0,342.0,73.0,12.0,328.0,85.0,10.0,307.0,76.0,14.0
31R028,31.0,The Eagle Academy for Young Men of Staten Island,718-727-6201,"101 Warren Street, Staten Island, NY 10304",10304.0,Staten is,https://www.myschools.nyc/en/schools/middle-school/12771,40.620347,-74.081643,0.0,0.0,0.0,58.0,11.0,0.0,68.0,18.0,0.0,59.0,11.0,0.0,73.0,8.0,0.0,69.0,8.0,0.0
31R034,31.0,I.S. 034 Tottenville,718-477-4500,"528 Academy Avenue, Staten Island, NY 10307",10307.0,Staten is,https://www.myschools.nyc/en/schools/middle-school/12782,40.508284,-74.243428,100.0,100.0,12.0,390.0,91.0,14.0,378.0,81.0,8.0,347.0,82.0,7.0,366.0,74.0,7.0,341.0,61.0,0.0
31R048,31.0,P.S. 048 William G. Wilcox,718-447-8323,"1050 Targee Street, Staten Island, NY 10304",10304.0,Staten is,https://www.myschools.nyc/en/schools/middle-school/12806,40.603484,-74.091237,49.0,49.0,11.0,97.0,47.0,6.0,118.0,70.0,9.0,93.0,41.0,8.0,126.0,59.0,7.0,104.0,47.0,10.0
31R049,31.0,I.S. 49 Berta A. Dreyfus,718-727-6040,"101 Warren Street, Staten Island, NY 10304",10304.0,Staten is,https://www.myschools.nyc/en/schools/middle-school/12809,40.620347,-74.081643,44.0,44.0,0.0,255.0,43.0,0.0,241.0,42.0,0.0,219.0,32.0,0.0,182.0,25.0,0.0,162.0,20.0,0.0
31R051,31.0,I.S. 051 Edwin Markham,718-981-0502,"81 Willowbrook Road, Staten Island, NY 10302",10302.0,Staten is,https://www.myschools.nyc/en/schools/middle-school/12813,40.622997,-74.144257,63.0,63.0,0.0,403.0,129.0,8.0,436.0,101.0,6.0,474.0,112.0,0.0,332.0,53.0,0.0,340.0,51.0,0.0
31R061,31.0,I.S. 061 William A Morris,718-727-8481,"445 Castleton Avenue, Staten Island, NY 10301",10301.0,Staten is,https://www.myschools.nyc/en/schools/middle-school/12837,40.634009,-74.097826,60.0,60.0,0.0,396.0,66.0,0.0,325.0,40.0,0.0,301.0,47.0,0.0,314.0,36.0,0.0,311.0,32.0,0.0
31R063,31.0,Marsh Avenue School for Expeditionary Learning,718-370-6850,"100 Essex Drive, Staten Island, NY 10314",10314.0,Staten is,https://www.myschools.nyc/en/schools/middle-school/12840,40.581315,-74.158589,60.0,60.0,11.0,140.0,49.0,7.0,156.0,70.0,7.0,146.0,52.0,0.0,149.0,50.0,0.0,146.0,51.0,0.0
31R072,31.0,I.S. 072 Rocco Laurie,718-698-5757,"33 Ferndale Avenue, Staten Island, NY 10314",10314.0,Staten is,https://www.myschools.nyc/en/schools/middle-school/12849,40.593005,-74.158988,121.0,121.0,19.0,448.0,137.0,18.0,463.0,139.0,26.0,437.0,145.0,21.0,517.0,159.0,13.0,505.0,134.0,16.0
31R075,31.0,I.S. 075 Frank D. Paulo,718-701-6343,"455 Huguenot Avenue, Staten Island, NY 10312",10312.0,Staten is,https://www.myschools.nyc/en/schools/middle-school/12852,40.54438,-74.197897,142.0,142.0,43.0,506.0,157.0,52.0,431.0,153.0,46.0,462.0,143.0,38.0,454.0,136.0,21.0,448.0,161.0,41.0
31R080,31.0,The Michael J. Petrides School,718-815-0186,"715 Ocean Terrace, Staten Island, NY 10301",10301.0,Staten is,https://www.myschools.nyc/en/schools/middle-school/12856,40.608512,-74.102067,24.0,24.0,6.0,91.0,24.0,0.0,93.0,22.0,0.0,97.0,24.0,0.0,94.0,26.0,0.0,82.0,28.0,0.0
31R861,31.0,Staten Island School of Civic Leadership,718-697-5250,"280 Regis Drive, Staten Island, NY 10314",10314.0,Staten is,https://www.myschools.nyc/en/schools/middle-school/12866,40.620676,-74.164277,41.0,41.0,0.0,98.0,33.0,0.0,96.0,34.0,0.0,96.0,36.0,0.0,91.0,20.0,0.0,88.0,21.0,0.0
32K045,32.0,P.S./I.S. 045 Horace E. Greene,718-642-5360,"84 Schaefer Street, Brooklyn, NY 11207",11207.0,Brooklyn,https://www.myschools.nyc/en/schools/middle-school/12983,40.686746,-73.910693,22.0,22.0,0.0,69.0,17.0,0.0,63.0,24.0,0.0,75.0,56.0,0.0,78.0,56.0,0.0,71.0,9.0,0.0
32K162,32.0,J.H.S. 162 The Willoughby,718-821-4860,"1390 Willoughby Avenue, Brooklyn, NY 11237",11237.0,Brooklyn,https://www.myschools.nyc/en/schools/middle-school/13005,40.707229,-73.919805,19.0,19.0,0.0,137.0,16.0,0.0,161.0,8.0,0.0,127.0,68.0,0.0,91.0,68.0,0.0,129.0,8.0,0.0
32K291,32.0,J.H.S. 291 Roland Hayes,718-574-0361,"231 Palmetto Street, Brooklyn, NY 11221",11221.0,Brooklyn,https://www.myschools.nyc/en/schools/middle-school/13009,40.695362,-73.915142,7.0,7.0,0.0,104.0,10.0,0.0,107.0,8.0,0.0,100.0,35.0,0.0,100.0,37.0,0.0,119.0,6.0,0.0
32K347,32.0,I.S. 347 School of Humanities,718-821-4248,"35 Starr Street, Brooklyn, NY 11221",11221.0,Brooklyn,https://www.myschools.nyc/en/schools/middle-school/13012,40.70069,-73.927481,11.0,11.0,0.0,88.0,0.0,0.0,100.0,11.0,0.0,125.0,7.0,0.0,109.0,0.0,0.0,102.0,0.0,0.0
32K349,32.0,"I.S. 349 Math, Science & Tech.",718-418-6389,"35 Starr Street, Brooklyn, NY 11221",11221.0,Brooklyn,https://www.myschools.nyc/en/schools/middle-school/13013,40.70069,-73.927481,18.0,18.0,0.0,100.0,19.0,0.0,82.0,7.0,0.0,106.0,41.0,0.0,125.0,34.0,0.0,98.0,9.0,0.0
32K383,32.0,J.H.S. 383 Philippa Schuyler,718-574-0390,"1300 Greene Avenue, Brooklyn, NY 11237",11237.0,Brooklyn,https://www.myschools.nyc/en/schools/middle-school/13018,40.697781,-73.919777,204.0,204.0,13.0,293.0,220.0,11.0,285.0,179.0,0.0,287.0,231.0,6.0,277.0,236.0,0.0,271.0,169.0,6.0
32K384,32.0,P.S. /I.S. 384 Frances E. Carter,718-642-4890,"242 Cooper Street, Brooklyn, NY 11207",11207.0,Brooklyn,https://www.myschools.nyc/en/schools/middle-school/13019,40.690353,-73.904803,0.0,0.0,0.0,68.0,9.0,0.0,58.0,8.0,0.0,69.0,14.0,0.0,55.0,0.0,0.0,52.0,0.0,0.0
32K554,32.0,All City Leadership Secondary School,718-246-6500,"321 Palmetto Street, Brooklyn, NY 11237",11237.0,Brooklyn,https://www.myschools.nyc/en/schools/middle-school/13028,40.69737,-73.913171,12.0,12.0,0.0,62.0,18.0,0.0,59.0,22.0,0.0,62.0,20.0,0.0,61.0,22.0,0.0,60.0,26.0,8.0
32K562,32.0,Evergreen Middle School for Urban Exploration,718-455-0180,"125 Covert Street, Brooklyn, NY 11207",11207.0,Brooklyn,https://www.myschools.nyc/en/schools/middle-school/13030,40.688387,-73.910276,12.0,12.0,0.0,97.0,9.0,0.0,96.0,10.0,0.0,122.0,53.0,0.0,127.0,47.0,0.0,120.0,20.0,0.0
